name,address,phone_number,website,email,category,zip_code
Evergreen Total Landscape Services,1904 Industrial Park Dr,(813) 659-2778,N/A,N/A,Landscaping Companies,33567
Evergreen Tampa Bay,1904 Industrial Park Dr,(813) 659-2778,https://www.evergreentampabay.com/blank-3,N/A,Landscaping Companies,33567
Tindel's Lawncare,1303 N Bracewell Dr,(813) 752-7272,N/A,N/A,Landscaping Companies,33567
The Lawn Medic Services Inc,2291 Us Highway 92 E,(813) 759-9263,https://www.thelawnmedics.com,N/A,Landscaping Companies,33567
Landscape Surgeons,Serving the33567 Area,(813) 563-0826,N/A,N/A,Landscaping Companies,33567
Colvin Property Maintenance,N/A,(813) 361-8511,N/A,N/A,Landscaping Companies,33567
Native Landscape & Drainage,N/A,(813) 690-5820,N/A,N/A,Landscaping Companies,33567
Diggs Lawn Pros,N/A,(813) 407-1804,http://diggslawnpros.com,N/A,Landscaping Companies,33567
Hardrock Landscape Services,N/A,(813) 323-8708,N/A,N/A,Landscaping Companies,33567
Ameri-Services,N/A,(813) 635-0786,N/A,N/A,Landscaping Companies,33567
Lovett's Landscaping,Serving the33567 Area,(813) 345-8568,N/A,N/A,Landscaping Companies,33567
Crosscreek Landscaping,Serving the33567 Area,(813) 376-2422,http://www.crosscreeklandscaping.com,N/A,Landscaping Companies,33567
"JOHNSON LANDSCAPING, INC.",Serving the33567 Area,(813) 361-3551,N/A,N/A,Landscaping Companies,33567
Jose Diaz Landscaping,Serving the33567 Area,(813) 546-9868,N/A,N/A,Landscaping Companies,33567
Worry Free Lawn & Landscape Inc,Serving the33567 Area,(813) 215-1138,N/A,N/A,Landscaping Companies,33567
Evergreen Total Landscape,Serving the33567 Area,(813) 659-2778,https://www.evergreentampabay.com/blank-3,N/A,Landscaping Companies,33567
Mulch Master Installation,Serving the33567 Area,(813) 598-6298,N/A,N/A,Landscaping Companies,33567
Next Level Turf Management,Serving the33567 Area,(813) 650-8621,http://nextlevelturf.net,N/A,Landscaping Companies,33567
Complete Land Care,Serving the33567 Area,(813) 681-5851,N/A,N/A,Landscaping Companies,33567
Little Brother's Yards,Serving the33567 Area,(813) 868-4883,N/A,N/A,Landscaping Companies,33567
Torres Landscaping,1005 Whitehurst Rd,(813) 359-7794,N/A,N/A,Landscaping Companies,33567
Lawn Medic Landscaping & Irrigation,4827 Beauchamp Rd,(813) 957-8020,http://www.lawnmedicland.com,N/A,Landscaping Companies,33567
JNR Lawn Maintenance & Tree Service LLC,N/A,(813) 401-3018,http://www.jnrtreeservice.com,N/A,Landscaping Companies,33567
R & J Lawn Care,N/A,(813) 540-5510,N/A,N/A,Landscaping Companies,33567
Landscaping Company by Lio,N/A,(352) 218-3765,N/A,N/A,Landscaping Companies,33567
Just Sod,N/A,(833) 587-8763,http://justsod.net,N/A,Landscaping Companies,33567
GCS Landscaping LLC,N/A,(727) 947-0770,https://gcslandscaping.com,N/A,Landscaping Companies,33567
Walker Landscaping and Lawn Care Service Inc,N/A,(813) 791-7789,N/A,N/A,Landscaping Companies,33567
Show To Prove LLC,N/A,(656) 223-5873,N/A,N/A,Landscaping Companies,33567
Diaz M Landscaping INC,N/A,(813) 771-0286,https://landscaper-tampafl.com,N/A,Landscaping Companies,33567
Reyes 1994 LLC,N/A,(656) 213-2532,https://landscaperintampafl.com,N/A,Landscaping Companies,33567
Amy's Irrigation Repair & Landscaping Maintenance,N/A,(813) 214-5006,https://landscaperruskinfl.com,N/A,Landscaping Companies,33567
Y & M Landscaping FS,N/A,(813) 410-9878,https://tampa-landscaperfl.com,N/A,Landscaping Companies,33567
Daniel Gomez Lawn Care Services LLC,N/A,(656) 213-2496,https://landscaperseffner.com,N/A,Landscaping Companies,33567
J S M Services,N/A,(813) 909-1759,N/A,N/A,Landscaping Companies,33567
C & S Landscaping & Lawn Svc,N/A,(813) 633-1706,N/A,N/A,Landscaping Companies,33567
Everything Outdoors,N/A,(813) 321-8733,https://www.everythingoutdoors.biz/contact-us,N/A,Landscaping Companies,33567
Precise Lawn Services,N/A,(813) 484-8703,N/A,N/A,Landscaping Companies,33567
YYY Landscaping,N/A,(813) 447-4552,N/A,N/A,Landscaping Companies,33567
Netherly's Landscape & Design,N/A,(813) 479-3021,https://netherlyslandscapeanddesign.com/contact-us,N/A,Landscaping Companies,33567
Landscape Maintenance,N/A,(813) 677-7236,N/A,N/A,Landscaping Companies,33567
At Ease Landscaping,N/A,(813) 727-5204,https://www.ateaselandscaping.com,N/A,Landscaping Companies,33567
Lawn Patterns Of Tampa Bay Inc,N/A,(813) 662-2666,N/A,N/A,Landscaping Companies,33567
Oldsmar Landscaping,N/A,(813) 926-8293,N/A,N/A,Landscaping Companies,33567
H & J LANDSCAPING,Serving the33567 Area,(813) 516-1327,N/A,N/A,Landscaping Companies,33567
H. Hernandez Land Scaping,Serving the33567 Area,(813) 482-1507,N/A,N/A,Landscaping Companies,33567
Southern Pride Landscaping,Serving the33567 Area,(813) 752-5075,N/A,N/A,Landscaping Companies,33567
Lovely's Landscape,Serving the33567 Area,(407) 992-3875,N/A,N/A,Landscaping Companies,33567
Sunset Bay Enterprise,Serving the33567 Area,(813) 732-6070,N/A,N/A,Landscaping Companies,33567
Landscape Maintenance Professionals,13050 E Us Highway 92,(813) 757-6500,http://www.lmppro.com,N/A,Landscaping Companies,33567
Planscape Inc,4002 Mcintosh Rd,(813) 659-0001,http://www.planscapefl.com,N/A,Landscaping Companies,33567
Martinez Lawn Care Services,3112 Barkley Ln,(813) 662-9792,N/A,N/A,Landscaping Companies,33567
American Landscape Services,2306 Gallagher Rd,(813) 689-3987,N/A,N/A,Landscaping Companies,33567
Mobley D,2715 Saint Anthony Dr,(813) 685-8068,N/A,N/A,Landscaping Companies,33567
Storms Landscaping Service,815 N Valrico Rd,(813) 689-8156,http://stormslandscaping.com,N/A,Landscaping Companies,33567
Property Care S Pecialist,2004 Florida St,(813) 438-8875,N/A,N/A,Landscaping Companies,33567
Goodfellow's Horticultral Services,2421 Buckhorn Manor Dr,(813) 684-6768,https://www.goodfellowinc.com,N/A,Landscaping Companies,33567
Hardeman Landscape Nursery Inc,3505 Gallagher Rd,(813) 689-5160,https://www.hardemanlandscape.com,N/A,Landscaping Companies,33567
Cutrite,4720 Dover Cliff Ct,(813) 684-2145,http://www.landscape.com/Dover-fl/Cutrite-Lawn-Maintenance-Inc-62588.html,N/A,Landscaping Companies,33567
