name,address,phone_number,website,email,category,zip_code
Compare Roofing Experts,Serving the 33584 area.,(888) 906-6670,https://www.yellowpages.com/</nationwide/mip/compare-roofing-experts-577854062?lid=1002194365265>,N/A,Roofing Contractors,33584
Bill Shields Roofing,Serving the 33584 area.,(813) 915-6714,http://www.billshieldsroofing.com/,N/A,Roofing Contractors,33584
Quality Roofing and Construction,Serving the 33584 area.,(813) 932-8005,https://www.mathewsqualityrooftampa.com/,N/A,Roofing Contractors,33584
"ABC Roofing Contractors. Inc,","401 E Jackson St
Tampa, FL 33602",(813) 774-6350,http://abcroofingcontractors.com,N/A,Roofing Contractors,33584
SCM Roofing,"13909 N Dale Mabry Hwy Ste 201
Tampa, FL 33618",(855) 726-7663,https://scmroofingfl.com/our-locations/tampa-fl,N/A,Roofing Contractors,33584
Millard Roofing,"715 W Us Highway 92
Seffner, FL 33584",(813) 661-4522,http://millardroofing.com,N/A,Roofing Contractors,33584
Artisan Roofing Service,"2803 Ebony Pl
Seffner, FL 33584",(813) 502-5898,N/A,N/A,Roofing Contractors,33584
Jerry\'s Roofing Of Tampa Bay Inc.,"Seffner, FL 33584",(813) 685-8190,https://www.rooferbrandon.com,N/A,Roofing Contractors,33584
"Best Roof, inc.","3098 S Kingsway Rd
Seffner, FL 33584",(813) 662-4820,N/A,N/A,Roofing Contractors,33584
Florida Forever Roofing & Restoration,"10150 Highland Manor Dr
Tampa, FL 33610",(813) 374-4226,N/A,N/A,Roofing Contractors,33584
Roofing Estimating & Insurance Process,"1302 N Parsons Ave
Brandon, FL 33510",(813) 324-1218,N/A,N/A,Roofing Contractors,33584
KMC Corporation Roofing & General Contractors Owner,"1215 W Camellia Dr
Brandon, FL 33510",(813) 626-9786,N/A,N/A,Roofing Contractors,33584
Millennial Roofers,"1502 Hastings Ct
Brandon, FL 33510",(407) 484-4262,N/A,N/A,Roofing Contractors,33584
Brandon Roofing,"2428 Bethany State Line Rd
Brandon, FL 33510",(813) 397-5488,N/A,N/A,Roofing Contractors,33584
Home Roofing Contractor Tampa FL,"5394 E Ellicott St,
Tampa, FL 33610",(813) 397-5488,N/A,N/A,Roofing Contractors,33584
North American Roofing Inc,"10150 Highland Manor Dr
Tampa, FL 33610",(813) 246-9956,N/A,N/A,Roofing Contractors,33584
K & L Roofing,"502 Greenbay Ave
Brandon, FL 33510",(813) 654-7799,N/A,N/A,Roofing Contractors,33584
Englert Inc,"10002 Princess Palm Ave Ste 212
Tampa, FL 33619",(813) 612-5781,http:/englertinc.com,N/A,Roofing Contractors,33584
Ramcon,"5902 Breckenridge Pkwy
Tampa, FL 33610",(813) 663-9667,http:/ramconroofing.com,N/A,Roofing Contractors,33584
Dockside Roofing Inc,"8916 Maislin Dr
Tampa, FL 33637",(813) 983-9099,http:/www.docksideroofing.com,N/A,Roofing Contractors,33584
Sutter Roofing,"8811 Maislin Dr
Temple Terrace, FL 33637",(813) 868-0800,https:/www.sutterroofing.com/sutter-roofing-office-locations/sutter-roofing-of-tampa,N/A,Roofing Contractors,33584
Handyman Roofing Co,Serving the33584 Area,(813) 878-0962,http:/www.handymanroofing.com,N/A,Roofing Contractors,33584
Gale Force Roofing & Restoration,"1723 S Kings Ave
Brandon, FL 33511",(813) 754-0200,https:/www.galeforceroofing.com,N/A,Roofing Contractors,33584
"Solar Roof Solutions, Inc.",Serving the33584 Area,(813) 999-4918,http:/solarroofsolutions.net,N/A,Roofing Contractors,33584
Tampa Roofing Co,Serving the33584 Area,(813) 238-6436,https:/tamparoofing.com/about-us,N/A,Roofing Contractors,33584
Roof X,"1426 Hobbs St
Tampa, FL 33619",(844) 877-6639,N/A,N/A,Roofing Contractors,33584
Janney Roofing,"3104 Cherry Palm Dr Ste 250
Tampa, FL 33619",(813) 285-7663,https:/janneyroofing.com/contact-us,N/A,Roofing Contractors,33584
Reese Roofing & Construction Inc.,"522 Oakfield Dr
Brandon, FL 33511",(727) 604-8040,https:/www.reeseroofing.com/roofer-brandon-fl,N/A,Roofing Contractors,33584
Lifetime Quality Roofing,"510 Vonderburg Dr Ste 306
Brandon, FL 33511",(813) 805-8096,https:/www.lifetimequalityroofing.com,N/A,Roofing Contractors,33584
Cb Roofing Construction Inc.,"501 S Falkenburg Rd Ste E6
Tampa, FL 33619",(813) 569-6930,http:/www.cbrc.co,N/A,Roofing Contractors,33584
