name,address,phone_number,website,email,category,zip_code
KaBam Plumbing Services,"4017 Salidas Del Sol Dr, Sun City Center, FL 33573",(656) 202-4129,http:/kabamplumbingservices.com/,N/A,Plumbing Companies,33584
Olin Plumbing Inc,"3201 east 8Th Ave, Tampa, FL 33605",(813) 497-4225,http:/www.plumberstampa.com/,N/A,Plumbing Companies,33584
Tampa Best Plumbers,"10210 Highland Manor Dr
Tampa, FL 33610",(813) 467-9738,N/A,N/A,Plumbing Companies,33584
New Vision Plumbing & Mechan,"5307 N Falkenburg Rd
Tampa, FL 33610",(813) 443-5662,N/A,N/A,Plumbing Companies,33584
Parker Plumbing,"PO Box 6155
Brandon, FL 33508",(813) 321-7297,N/A,N/A,Plumbing Companies,33584
Above & Beyond Plumbing & Rooter Inc,Serving the33584 Area,(813) 963-1580,N/A,N/A,Plumbing Companies,33584
All American Gas Services,"9627 Ware Cir
Tampa, FL 33619",(813) 920-9500,http:/allamericangasservice.com,N/A,Plumbing Companies,33584
Riverview Plumbing,Serving the33584 Area,(656) 207-6042,https:/voxservices.net/plumbing/riverview/fl/1107/riverviewplumbing,N/A,Plumbing Companies,33584
David E Albaugh Plumbing,Serving the33584 Area,(813) 298-6638,https:/www.xstreamirrigationllc.com,N/A,Plumbing Companies,33584
Paul Wood Plumbing Inc.,Serving the33584 Area,(813) 641-1387,https://www.paulwoodplumbinginc.com/default.html,N/A,Plumbing Companies,33584
United Plumbing & Drain,Serving the33584 Area,(813) 546-9411,http://www.unitedplumbing-drain.com,N/A,Plumbing Companies,33584
ARS Rescue Rooter,Serving the33584 Area,(813) 995-7105,http://www.ars.com,N/A,Plumbing Companies,33584
Bay 2 Bay Plumbing & Drains,Serving the33584 Area,(813) 701-4224,https:/bay2bayplumbing.com,N/A,Plumbing Companies,33584
Da Drain Fellas,Serving the33584 Area,(813) 540-7022,http://www.drainfellasllc.com,N/A,Plumbing Companies,33584
The Friendly Plumber,"1616 Allison Woods Ln
Tampa, FL 33619",(813) 622-8533,https:/thefriendlyplumberllc.com,N/A,Plumbing Companies,33584
All Out Plumbing Services,"10007 Princess Palm Ave
Tampa, FL 33619",(813) 518-7021,N/A,N/A,Plumbing Companies,33584
UFI Plumbing,"129 Central Dr
Brandon, FL 33510",(813) 654-2962,N/A,N/A,Plumbing Companies,33584
Toilet Repair & Installation,"131 N Moon Ave
Brandon, FL 33510",(813) 278-1144,N/A,N/A,Plumbing Companies,33584
Complete Plumbing & Drain,"148 Central Dr
Brandon, FL 33510",(813) 819-9240,https:/www.completeplumbinganddrains.com,N/A,Plumbing Companies,33584
Tampa Commercial Plumbing Services,"10184 Fisher Ave
Tampa, FL 33619",(813) 352-3134,https:/jsplumbinginc.com,N/A,Plumbing Companies,33584
Springer Plumbing,"108 N Pinewood Ave
Brandon, FL 33510",(813) 685-0730,N/A,N/A,Plumbing Companies,33584
Plumbers,"108 N Pinewood Ave
Brandon, FL 33510",(813) 657-5657,N/A,N/A,Plumbing Companies,33584
Mister Plumbing,"108 N Kings Ave
Brandon, FL 33510",(813) 513-9263,N/A,N/A,Plumbing Companies,33584
Always Affordable Plumbing,"1010 W Brandon Blvd
Brandon, FL 33511",(813) 513-9412,N/A,N/A,Plumbing Companies,33584
Brandon Appliances Plumbing,"115 Margaret St
Brandon, FL 33511",(813) 235-0463,N/A,N/A,Plumbing Companies,33584
Water Heaters,"717 W Robertson St
Brandon, FL 33511",(813) 540-4264,N/A,N/A,Plumbing Companies,33584
Around-the-Clock Plumbing,"652 Oakfield Dr
Brandon, FL 33511",(813) 603-3441,N/A,N/A,Plumbing Companies,33584
L R Simmons Plumbing,"213 N Falkenburg Rd
Tampa, FL 33619",(813) 685-8778,N/A,N/A,Plumbing Companies,33584
Alpha Integrations,"330 Pauls Dr
Brandon, FL 33511",(813) 330-7699,http://integralenergyus.com,N/A,Plumbing Companies,33584
Curtis Plumbing,"330 Pauls Dr
Brandon, FL 33511",(813) 324-7436,N/A,N/A,Plumbing Companies,33584
Plumber For Tampa Local,"8401 Laurel Fair Cir
Tampa, FL 33610",(813) 419-1805,N/A,N/A,Plumbing Companies,33584
