name,address,phone_number,website,email,category,zip_code
Ken Leonard Plumbing Inc,"7380 Jasmin Drive, New Port Richey, FL 34652",(727) 877-2083,http://www.kenleonardplumbing.com/,N/A,Plumbing Companies,33527
Armstrong Bros Plumbing,"923 4th St W, Palmetto, FL 34221",(941) 479-6173,http://www.armstrongbrosplumbing.com/,N/A,Plumbing Companies,33527
United Electric Motor,"905 E Ida St, Tampa, FL 33603",(813) 280-0153,https://www.unitedelectricmotortampaflus.com/,N/A,Plumbing Companies,33527
Accurate Plumbers Of FL Inc,"8032 Sycamore Dr, New Port Richey, FL 34654",(727) 810-3269,http://accurateplumbersoffl.com/,N/A,Plumbing Companies,33527
Larson Plumbing,"3205 E 8th Ave, Tampa, FL 33605",(813) 867-2850,http://www.larsonplumbing.net/,N/A,Plumbing Companies,33527
Neely Well Drilling,"2805 Mayday Dr, Plant City, FL 33565",(656) 230-0806,https://neelywelldrilling.net/,N/A,Plumbing Companies,33527
Reedy Plumbing Inc.,"5186 Florida 674, Wimauma, FL 33598",(813) 634-1163,http://www.reedyplumbing.com/,N/A,Plumbing Companies,33527
ALCA Plumbing,"3612 Foxwood Blvd, Wesley Chapel, FL 33543",(813) 322-2138,https://www.alcaplumbinginc.com/,N/A,Plumbing Companies,33527
Bella Plumbing,"17430 Cedarwood Loop, Lutz, FL 33558",(727) 226-0698,http://www.bellaplumbingfl.com/,N/A,Plumbing Companies,33527
Coggins Plumbing Inc,"3801 E State Road 60
Dover, FL 33527",(813) 643-7173,http://www.cogginsplumbing.com,N/A,Plumbing Companies,33527
Apr Inc,"3919 Tanner Rd
Dover, FL 33527",(813) 915-7457,https://www.aprincfl.com,N/A,Plumbing Companies,33527
Affordable Plumbing & Repairs,"3919 Tanner Rd
Dover, FL 33527",(813) 652-8241,N/A,N/A,Plumbing Companies,33527
Wayne Conyers Plumbing In,"13309 E Wheeler Rd
Dover, FL 33527",(813) 324-9604,N/A,N/A,Plumbing Companies,33527
Peach Plumbing Company,"1840 Kim Acres Ln
Dover, FL 33527",(813) 689-9111,N/A,N/A,Plumbing Companies,33527
Guaranteed Air Services,"4506 Edwards Rd
Plant City, FL 33567",(813) 473-6291,N/A,N/A,Plumbing Companies,33527
Associated Plumbing Inc,"2711 Airport Rd
Plant City, FL 33563",(813) 659-0100,N/A,N/A,Plumbing Companies,33527
Wayne Conyers Plumbing Inc,"Dover, FL 33527",(813) 986-3492,http://www.conyersplumbing.com,N/A,Plumbing Companies,33527
Springer Plumbing,"4864 Goff Rd
Plant City, FL 33567",(813) 759-2300,N/A,N/A,Plumbing Companies,33527
Scott\'s Plumbing Services,"2815 Clubhouse Dr
Plant City, FL 33566",(813) 759-9302,N/A,N/A,Plumbing Companies,33527
Professional Plumbing Solutions Inc,"Tampa, FL 33613",(813) 227-9411,N/A,N/A,Plumbing Companies,33527
Gideons & Greco Plumbing Co Inc,"121 Central Dr
Brandon, FL 33510",(813) 681-8567,http://www.gideons.com,N/A,Plumbing Companies,33527
About Time Plumbing & Drain Cleaning Inc,"1422 1/2 S Alexander St
Plant City, FL 33563",(813) 752-2876,N/A,N/A,Plumbing Companies,33527
Above & Beyond Plumbing & Rooter Inc,Serving the33527 Area,(813) 963-1580,N/A,N/A,Plumbing Companies,33527
Bahmann Frank Plumbing,"Zephyrhills, FL 33542",(813) 782-8108,N/A,N/A,Plumbing Companies,33527
Roto-Rooter Plumbing & Water Cleanup,"110 Lithia Pinecrest Rd
Brandon, FL 33511",(813) 939-8667,https://www.rotorooter.com/brandonfl/?utm_source=iyp&utm_medium=paid&utm_campaign=iyp,N/A,Plumbing Companies,33527
Riverview Plumbing,Serving the33527 Area,(656) 207-6042,https://voxservices.net/plumbing/riverview/fl/1107/riverviewplumbing,N/A,Plumbing Companies,33527
Dyser Plumbing Co,"Tampa, FL 33624",(813) 269-4790,N/A,N/A,Plumbing Companies,33527
Nick\'s Plumbing Service,"Tampa, FL 33612",(813) 933-6427,N/A,N/A,Plumbing Companies,33527
David E Albaugh Plumbing,Serving the33527 Area,(813) 298-6638,https://www.xstreamirrigationllc.com,N/A,Plumbing Companies,33527
Drainworks Plumbing & Gas Inc,"Brandon, FL 33511",(813) 707-3215,https://getdrainworks.com,N/A,Plumbing Companies,33527
A Good Plumber Inc,"1803 Shantia Ct
Valrico, FL 33596",(813) 661-2090,N/A,N/A,Plumbing Companies,33527
Local Plumbing Lutz FL,"Lutz, FL 33558",(813) 315-3677,N/A,N/A,Plumbing Companies,33527
Bed Of Roses Landscaping,"Tampa, FL 33609",(813) 325-6263,N/A,N/A,Plumbing Companies,33527
Leto Plumbing Inc,"519 Wilbur St
Brandon, FL 33511",(813) 634-4100,https://letoplumbinginc.com,N/A,Plumbing Companies,33527
"Perez Plumbing, Inc.","Wesley Chapel, FL 33544",(813) 907-1515,https://www.perezplumbing.com,N/A,Plumbing Companies,33527
1st Choice Plumbing Solutions LLC,"Seffner, FL 33584",(813) 643-7556,http://www.call1stchoiceplumbing.com,N/A,Plumbing Companies,33527
Temple Terrace Plumbing,"Tampa, FL 33617",(813) 239-7577,https://www.templeterraceplumbing.net,N/A,Plumbing Companies,33527
Tampa\'s Plumbing Solution,"Brandon, FL 33511",(813) 540-1010,http://www.tampasplumbing.com,N/A,Plumbing Companies,33527
The Pink Plumber of Tampa,"Tampa, FL 33634",(813) 586-2148,http://www.pinkplumberfl.com,N/A,Plumbing Companies,33527
Paul Wood Plumbing Inc.,Serving the33527 Area,(813) 641-1387,https://www.paulwoodplumbinginc.com/default.html,N/A,Plumbing Companies,33527
United Plumbing & Drain,Serving the33527 Area,(813) 546-9411,http://www.unitedplumbing-drain.com,N/A,Plumbing Companies,33527
ARS Rescue Rooter,Serving the33527 Area,(813) 995-7105,http://www.ars.com,N/A,Plumbing Companies,33527
Bay 2 Bay Plumbing & Drains,Serving the33527 Area,(813) 701-4224,https:/bay2bayplumbing.com,N/A,Plumbing Companies,33527
Da Drain Fellas,Serving the33527 Area,(813) 540-7022,http://www.drainfellasllc.com,N/A,Plumbing Companies,33527
3 Sons Plumbing,"2514 Linden Tree St
Seffner, FL 33584",(813) 957-4570,https:/3sonsplumbing.net/contact-us,N/A,Plumbing Companies,33527
Rite Flo Plumbing,"315 Brandywine Dr
Valrico, FL 33594",(813) 681-1900,N/A,N/A,Plumbing Companies,33527
Plant City Plumber Service,"3412 W Baker St
Plant City, FL 33563",(813) 659-5601,N/A,N/A,Plumbing Companies,33527
Preferred Plumbing Services,"101 S Saint Cloud Ave
Valrico, FL 33594",(813) 527-0253,N/A,N/A,Plumbing Companies,33527
Pipeworks Plumbing Inc,"2406 E State Road 60
Valrico, FL 33594",(813) 299-3279,https:/www.pipeworksplumbingbrandon.com,N/A,Plumbing Companies,33527
Just Koolin AC & Heating,"810 Cape Cod Cir
Valrico, FL 33594",(813) 325-4107,http://www.justkoolinac.com,N/A,Plumbing Companies,33527
Johnny Doan Plumbing,"301 W Us Highway 92
Seffner, FL 33584",(813) 531-9930,http://www.doanplumbing.com,N/A,Plumbing Companies,33527
Real Turf Solutions,"102 Goins Dr
Seffner, FL 33584",(813) 654-5296,N/A,N/A,Plumbing Companies,33527
Installation of Sinks,"2001 Country Club Ct
Plant City, FL 33566",(813) 359-9309,N/A,N/A,Plumbing Companies,33527
Complete Repipe,"704 W Dr Martin Luther King Jr Blvd
Seffner, FL 33584",(813) 603-3442,N/A,N/A,Plumbing Companies,33527
A Stone Plumbing Company,"1420 Hobbs St
Seffner, FL 33584",(813) 685-1900,http://www.plumberoftampa.com,N/A,Plumbing Companies,33527
Water & Sewer Line Location,"1903 W Reynolds St
Plant City, FL 33563",(813) 365-7103,N/A,N/A,Plumbing Companies,33527
Elite Plumbing & Gas,"3508 Sam Astin Rd
Plant City, FL 33566",(813) 527-5600,https:/plumber.eliteplumbingandgasllc.com,N/A,Plumbing Companies,33527
Plumbing Service In Brandon FL,"1208 N Parsons Ave
Brandon, FL 33510",(813) 315-3677,https:/highlowplumbing.com,N/A,Plumbing Companies,33527
Home Maintenance In Tampa Services,"433 Sand Ridge Dr
Valrico, FL 33594",(813) 434-3349,N/A,N/A,Plumbing Companies,33527
Linville Plumbing Service,"1827 Erin Brooke Dr
Valrico, FL 33594",(813) 651-3397,N/A,N/A,Plumbing Companies,33527
Ellis Plumbing Inc,"11710 E Us Highway 92 Ste B
Seffner, FL 33584",(813) 622-7007,N/A,N/A,Plumbing Companies,33527
Back-Flow Prevention,"206 W Alexander St
Plant City, FL 33563",(813) 359-1592,N/A,N/A,Plumbing Companies,33527
Amen Plumbing Inc.,"2305 Dovewood Estates Ct
Valrico, FL 33594",(813) 595-1111,http://www.amenplumbinginc.com,N/A,Plumbing Companies,33527
Scott\'s Plumbing Heating & Service,"108 N Pinewood Ave
Brandon, FL 33510",(813) 651-4293,N/A,N/A,Plumbing Companies,33527
Parker Plumbing,"108 N Pinewood Ave
Brandon, FL 33510",(813) 685-1652,N/A,N/A,Plumbing Companies,33527
Wayne Conyers Plumbing,"108 N Pinewood Ave
Brandon, FL 33510",(813) 651-3397,N/A,N/A,Plumbing Companies,33527
Subterrain Technologies Inc,"108 N Pinewood Ave
Brandon, FL 33510",(813) 653-3446,N/A,N/A,Plumbing Companies,33527
