name,address,phone_number,website,email,category,zip_code
Air Masters of Tampa Bay,Serving the 33594 area.,(813) 279-6492,http://www.airmasters.net/,N/A,HVAC Services,33594
Air Masters Of Tampa Bay Inc.,Serving the 33594 area.,(727) 287-5187,http://www.airmasters.net/,N/A,HVAC Services,33594
Heating and Air Conditioning Service Mango FL,"2727 Marion Drive
Mango, FL 33550",(813) 315-3677,N/A,N/A,HVAC Services,33594
Bloomingdale Air,"1540 Bloomingdale Ave
Valrico, FL 33596",(813) 685-2665,http://www.brandonairconditioning.com,N/A,HVAC Services,33594
Airmax Heating & Aircondi,"2962 Hickory Grove Dr
Valrico, FL 33596",(813) 661-0830,N/A,N/A,HVAC Services,33594
Home AC Experts,"150 E Bloomingdale Ave
Brandon, FL 33511",(813) 586-1850,N/A,N/A,HVAC Services,33594
Ken Barrett Air Conditioning,"235 W Brandon Blvd Ste 271
Brandon, FL 33511",(813) 699-0828,http://www.kenbarrettair.com,N/A,HVAC Services,33594
Merc Air,Serving the33594 Area,(813) 837-6372,https://www.hvaccontractortampa.com,N/A,HVAC Services,33594
HVAC Service in Durant FL,"6543 S Tamiami Trail
Durant, FL 33530",(813) 751-2802,N/A,N/A,HVAC Services,33594
"Air Medics A/C and Heating, Inc.","19524 Boyette Rd
Lithia, FL 33547",(855) 669-6583,https://www.airmedicsac.info,N/A,HVAC Services,33594
Knights Air Conditioning LLC,"6520 Us Highway 301 S
Riverview, FL 33578",(813) 677-4014,http://www.knightsairconditioning.com,N/A,HVAC Services,33594
Progressive Air,"6566 Krycul Ave
Riverview, FL 33578",(813) 374-9929,http://progressive.com,N/A,HVAC Services,33594
Hawkins Service Company,"10517 Riverview Dr
Riverview, FL 33578",(866) 429-5782,https://www.hawkinsserviceco.com,N/A,HVAC Services,33594
Cooling Service,Serving the33594 Area,(941) 234-4050,http:/www.coolnow.com,N/A,HVAC Services,33594
Dav Pro Parts & Service,Serving the33594 Area,(813) 299-2141,N/A,N/A,HVAC Services,33594
Flo-Rite Air conditioning and heating,Serving the33594 Area,(813) 380-9622,http:/www.flo-riteac.com,N/A,HVAC Services,33594
Carico electric LLC,Serving the33594 Area,(813) 270-9938,http:/caricoelectricservices.com,N/A,HVAC Services,33594
Trinity Air Quality Heating and Cooling,Serving the33594 Area,(727) 239-8119,http:/trinityairquality.com,N/A,HVAC Services,33594
"Air Cee Air Conditioning, Heating & Refrigeration",Serving the33594 Area,(813) 513-5100,https:/airceecooling.com,N/A,HVAC Services,33594
Sims AC Sales & Service,Serving the33594 Area,(813) 928-9540,https:/simsacsales.com,N/A,HVAC Services,33594
Triple H Air Conditioning Inc. Florida,Serving the33594 Area,(813) 655-4501,https:/hhhworks.com,N/A,HVAC Services,33594
Gulfwind Air Conditioning & Heating Inc,Serving the33594 Area,(813) 926-5721,http:/www.americanstandardair.com,N/A,HVAC Services,33594
Minardi Air Conditioning,Serving the33594 Area,(813) 253-2800,N/A,N/A,HVAC Services,33594
Titan Air Conditioning,Serving the33594 Area,(813) 453-9033,https:/www.titanairfl.com/about-us,N/A,HVAC Services,33594
Kulwicki Air Inc,Serving the33594 Area,(813) 985-1602,N/A,N/A,HVAC Services,33594
