name,address,phone_number,website,email,category,zip_code
Berkshire Hathaway Homeservices Florida Properties-Brandon Office,"3228 Lithia Pinecrest Rd
Valrico, FL 33594",(813) 643-9977,https://www.bhhsfloridaproperties.com,N/A,Property Managers,33594
Specialized Property Management Tampa,Serving the33594 Area,(813) 548-3032,https://specializedpropertymanagementtampa.com,N/A,Property Managers,33594
CAREFREE PROPERTY MGT.,"1478 Bloomingdale Ave
Valrico, FL 33596",(813) 624-1111,http://carefree.managebuilding.com,N/A,Property Managers,33594
Bloomingdale Wo,"3419 Pine Trace Cir
Valrico, FL 33596",(813) 502-0026,http://bloomingdalewoodsliving.com,N/A,Property Managers,33594
Laburnum Garden Apartment,"1174 Bloomingdale Ave
Valrico, FL 33596",(813) 436-0580,N/A,N/A,Property Managers,33594
Kelly&Hamilton Enterprises,Serving the33594 Area,(813) 852-6751,N/A,N/A,Property Managers,33594
CAM LICENSE ONLINE Florida,Serving the33594 Area,(813) 373-3921,https://camlicenseonline.com,N/A,Property Managers,33594
PMI Elite Properties,Serving the33594 Area,(941) 219-5116,https://www.palmettopropertymanagementinc.com,N/A,Property Managers,33594
PMI Pasco,Serving the33594 Area,(727) 602-8192,https://www.landolakesvacationrentalmangement.com,N/A,Property Managers,33594
American Systems Inc,Serving the33594 Area,(813) 239-1161,https://www.americansystems.com,N/A,Property Managers,33594
Siteplan Corp,"1105 Lithia Pinecrest Rd
Brandon, FL 33511",(813) 643-8200,N/A,N/A,Property Managers,33594
PMI Arrico Realty & Property Management,"642 E Bloomingdale Ave
Brandon, FL 33511",(813) 662-9363,https://www.tampapropertymanagementinc.net,N/A,Property Managers,33594
UNIC Property Management,Serving the33594 Area,(813) 298-9372,N/A,N/A,Property Managers,33594
Sweet Living Inc,"316 E Bloomingdale Ave
Brandon, FL 33511",(813) 548-2906,N/A,N/A,Property Managers,33594
Big Lou\'s Bouncies,"616 Sandy Creek Dr
Brandon, FL 33511",(813) 571-1667,http://www.biglousbouncies.com,N/A,Property Managers,33594
K W Property Management Serv,"913 S Parsons Ave
Brandon, FL 33511",(813) 684-0001,N/A,N/A,Property Managers,33594
Acme Captioning Inc,"11518 Wellman Dr
Riverview, FL 33578",(813) 315-9503,N/A,N/A,Property Managers,33594
