name,address,phone_number,website,email,category,zip_code
Bay Home Inspections,"4590 Moores Lake Rd
Dover, FL 33527",(813) 598-1446,http://www.bayhomeinspections.net,N/A,Home Inspectors,33527
Trautwein Enterprises,"2720 Kirkland Rd
Dover, FL 33527",(813) 986-5723,N/A,N/A,Home Inspectors,33527
Complete Home Inspection Services,"Tampa, FL 33605",(813) 380-1355,https:/betflikdc.com,N/A,Home Inspectors,33527
Florida Building Inspection Group,"Tampa, FL 33619",(813) 409-3249,http://www.flbigroup.com,N/A,Home Inspectors,33527
Elite Level Home Inspection,"Riverview, FL 33569",(813) 846-2770,N/A,N/A,Home Inspectors,33527
Pennington Home Inspection Inc,"4113 Amber Ridge Ln
Valrico, FL 33594",(813) 643-0854,N/A,N/A,Home Inspectors,33527
A & S Building Analysis,"1443 Walden Oaks Pl
Plant City, FL 33563",(813) 754-4669,N/A,N/A,Home Inspectors,33527
Chief Home Inspections,"804 Sutton Ave
Brandon, FL 33510",(813) 333-6263,https:/0405018.mynetworksolutions.mobi,N/A,Home Inspectors,33527
A Peace of Mind Inspection Services,"2020 Lee Dr
Valrico, FL 33594",(813) 681-7621,N/A,N/A,Home Inspectors,33527
Pillar to Post,"108 N Pinewood Ave
Brandon, FL 33510",(813) 685-7573,N/A,N/A,Home Inspectors,33527
Diversified Inspection Services LLC,"Valrico, FL 33596",(813) 625-2421,N/A,N/A,Home Inspectors,33527
Cox Home Inspections,"Temple Terrace, FL 33637",(813) 850-4901,N/A,N/A,Home Inspectors,33527
Houston Home Inspections Inc,"Tampa, FL 33613",(813) 837-9705,N/A,N/A,Home Inspectors,33527
Delta Inc,"Brandon, FL 33511",(813) 571-5594,N/A,N/A,Home Inspectors,33527
Best Check Home Inspection,"Plant City, FL 33565",(813) 719-3732,N/A,N/A,Home Inspectors,33527
"C P Danner Construction, Inc","Tampa, FL 33605",(813) 624-8540,N/A,N/A,Home Inspectors,33527
Gulf Coast Home Inspections,"Tampa, FL 33624",(813) 960-7970,N/A,N/A,Home Inspectors,33527
Pillar To Post,"Tampa, FL 33647",(813) 907-7401,http://www.pillartopost.com,N/A,Home Inspectors,33527
Collaborative Inspections,"Tampa, FL 33614",(833) 404-3222,N/A,N/A,Home Inspectors,33527
Preferred Home Inspection Services,"Land O Lakes, FL 34639",(813) 328-2290,https://www.preferredhomeinspector.com,N/A,Home Inspectors,33527
Home Pro,Serving the33527 Area,(813) 528-3505,http://www.homeproswf.com,N/A,Home Inspectors,33527
AmeriSpec Inspection Services,Serving the33527 Area,(813) 442-1080,http://www.amerispechillsborough.com,N/A,Home Inspectors,33527
Neal Inspections,Serving the33527 Area,(813) 544-6325,https://nealinspections.com,N/A,Home Inspectors,33527
Valueguard Inspections,Serving the33527 Area,(813) 401-2563,https://valueguardfl.com,N/A,Home Inspectors,33527
Elemental Solutions,Serving the33527 Area,(813) 343-0321,https://gcfla.com,N/A,Home Inspectors,33527
A Buyer\'s Choice Home Inspections Tampa NW with Tony Castellanos,Serving the33527 Area,(813) 618-8309,https://abuyerschoice.com/inspector/tony-castellanos,N/A,Home Inspectors,33527
Bungalow Inspections,Serving the33527 Area,(813) 670-8408,http://bungalowhomeinspections.com,N/A,Home Inspectors,33527
Apex Sight Solutions,Serving the33527 Area,(813) 860-8374,https://apexsightsolutions.com,N/A,Home Inspectors,33527
AA Alert Home & Insurance Inspection,Serving the33527 Area,(813) 237-5090,N/A,N/A,Home Inspectors,33527
Thomas Inspection Services,Serving the33527 Area,(813) 204-9782,N/A,N/A,Home Inspectors,33527
Sloman Ron Home Inspections,Serving the33527 Area,(813) 839-8180,N/A,N/A,Home Inspectors,33527
WIN Home Inspection,Serving the33527 Area,(813) 774-1080,https:/newtampa.wini.com/?utm_source=GMB_listing&utm_medium=organic,N/A,Home Inspectors,33527
Affordable Home Inspection,Serving the33527 Area,(813) 625-6241,N/A,N/A,Home Inspectors,33527
ABC Home & Property Inspection,Serving the33527 Area,(813) 648-3700,N/A,N/A,Home Inspectors,33527
Home Inspection Now Inc,Serving the33527 Area,(813) 789-6700,N/A,N/A,Home Inspectors,33527
HouseMaster Serving South Tampa,Serving the33527 Area,(813) 545-0185,https:/housemaster.com/tampa?cid=LSTL_HMS000373,N/A,Home Inspectors,33527
Creative Florida Realty Inc.,"Po Box 2543
Plant City, FL 33564",(813) 695-2453,N/A,N/A,Home Inspectors,33527
Home Inspections Of Mid-Florida,"1015 Sonya Ln
Brandon, FL 33511",(813) 967-2987,N/A,N/A,Home Inspectors,33527
Pillar To Post Homes Inspections,"Brandon, FL 33511",(813) 685-7573,http:/www.pillartopost-hillsboroughcounty.com,N/A,Home Inspectors,33527
SEC Inspection Division,"Brandon, FL 33511",(813) 657-4663,N/A,N/A,Home Inspectors,33527
Brink\'s Home Inspection,"3611 Cold Creek Dr
Valrico, FL 33596",(734) 849-4100,https:/www.brinkshomeinspections.com,N/A,Home Inspectors,33527
Waypoint Property Inspection,"3220 Parkside Center Cir
Tampa, FL 33619",(813) 486-8551,https:/waypointinspection.com,N/A,Home Inspectors,33527
Way Point Prope Rty Inspec,"3218 Parkside Center Cir
Tampa, FL 33619",(813) 769-9889,N/A,N/A,Home Inspectors,33527
Pillar To Post Home Inspectors - Gary Ratliff,"1971 W Lumsden Rd Ste 329
Brandon, FL 33511",(813) 685-7573,http:/www.pillartopost.com,N/A,Home Inspectors,33527
Lugo\'s Home Inspection,"1515 Portsmouth Lake Dr
Brandon, FL 33511",(813) 569-8543,N/A,N/A,Home Inspectors,33527
Tampa Inspection Company,"701 Herlong Ct
Brandon, FL 33511",(813) 373-3015,https:/www.tampaic.com,N/A,Home Inspectors,33527
United Home Inspections,"867 W Bloomingdale Ave
Brandon, FL 33508",(219) 595-9580,https:/nwiinspector.com/chesterton,N/A,Home Inspectors,33527
American Home & Insurance Inspector,"1405 Star Jasmine Ln
Brandon, FL 33511",(813) 930-6291,N/A,N/A,Home Inspectors,33527
Space Invaders Home Inspections,"2109 Williams Rd
Plant City, FL 33565",(813) 441-4526,N/A,N/A,Home Inspectors,33527
Padco Home Inspections Inc.,"2543 Annapolis Way Apt 312
Brandon, FL 33511",(813) 416-1724,http:/homeinspection4u.com,N/A,Home Inspectors,33527
ADA Expert Inspections,"4534 Highland Creek Dr
Plant City, FL 33567",(813) 712-9916,https:/aeiada.com,N/A,Home Inspectors,33527
Capri Engineering,"5808 Breckenridge Pkwy
Tampa, FL 33610",(813) 623-3100,N/A,N/A,Home Inspectors,33527
Amerispec Home Inspection Services,"1210 N Us Highway 301 Ste A
Tampa, FL 33619",(813) 621-7891,N/A,N/A,Home Inspectors,33527
Inframetrix,"9208 Florida Palm Dr
Tampa, FL 33619",(813) 740-2469,N/A,N/A,Home Inspectors,33527
Building Inspection Pros,"7222 N Dale Mabry Hwy
Tampa, FL 33614",(813) 243-4332,http:/www.buildinginspectionpros.com,N/A,Home Inspectors,33527
We R Survey,"4012 Gunn Hwy, Ste 100
Tampa, FL 33618",(813) 364-4449,https:/wersurvey.com,N/A,Home Inspectors,33527
AcuSystem Home Inspections,"3412 Nundy Rd
Tampa, FL 33618",(813) 265-1767,N/A,N/A,Home Inspectors,33527
U S Home Inspections,"12518 River Birch Dr
Riverview, FL 33569",(813) 282-9164,http:/www.usbuildingevaluations.com,N/A,Home Inspectors,33527
