name,address,phone_number,website,email,category,zip_code
Air Masters of Tampa Bay,Serving the 33584 area.,(813) 279-6492,http://www.airmasters.net/,N/A,HVAC Services,33584
Air Masters Of Tampa Bay Inc.,Serving the 33584 area.,(727) 287-5187,http://www.airmasters.net/,N/A,HVAC Services,33584
Merc Air,Serving the33584 Area,(813) 837-6372,https:/www.hvaccontractortampa.com,N/A,HVAC Services,33584
All Temp Air Conditioning & Refrigeration,"10277 Windhorst Rd
Tampa, FL 33619",(813) 630-9400,https:/alltemprefrigerationfl.com/tampa,N/A,HVAC Services,33584
Airstron Inc,"1501 Hobbs St
Tampa, FL 33619",(813) 681-1282,http:/airstron.com,N/A,HVAC Services,33584
John\'s Air Conditioning and Heating Service,"1209 Tech Blvd Ste 209
Tampa, FL 33619",(813) 689-2722,https:/www.johnsair.com,N/A,HVAC Services,33584
Momentum AC Services,"333 N Falkenburg Rd Ste A120
Tampa, FL 33619",(813) 530-0201,N/A,N/A,HVAC Services,33584
Marc Morris A C & RFRGN,"333 N Falkenburg Rd
Tampa, FL 33619",(813) 989-8804,N/A,N/A,HVAC Services,33584
Eskimo Brothers AC and Heating LLC,"522 Oakfield Dr
Brandon, FL 33511",(813) 400-0123,http:/eskimobrothersac.net,N/A,HVAC Services,33584
Fire & Ice Heating and Cooling,"1114 Askew Dr
Brandon, FL 33511",(863) 624-6176,https:/www.fireandiceair.com,N/A,HVAC Services,33584
Best Home Services,"2130 W Brandon Blvd
Brandon, FL 33511",(813) 652-0067,https:/www.homeofintegrity.com,N/A,HVAC Services,33584
Universal Air & Heat,"501 S Falkenburg Rd
Tampa, FL 33619",(866) 999-2665,http:/uahac.com,N/A,HVAC Services,33584
Sun Air Services,"501 S Falkenburg Rd Ste C21
Tampa, FL 33619",(813) 540-9055,http://www.sunairtampa.com,N/A,HVAC Services,33584
Ocean Air,"607 Pauls Dr
Brandon, FL 33511",(813) 643-6464,N/A,N/A,HVAC Services,33584
Integrity Home Solutions,"5904 Hampton Oaks Pkwy
Tampa, FL 33610",(813) 575-6500,https:/www.homeofintegrity.com,N/A,HVAC Services,33584
United Rentals-Reliable Onsite Services,"1208 Old Hopewell Rd
Tampa, FL 33619",(813) 565-1888,https:/www.unitedrentals.com/locations/fl/tampa/climate-solutions/63m,N/A,HVAC Services,33584
Brandon Air Co,"Valrico, FL 33595",(813) 689-0816,N/A,N/A,HVAC Services,33584
Cooling Service,Serving the33584 Area,(941) 234-4050,http:/www.coolnow.com,N/A,HVAC Services,33584
Dav Pro Parts & Service,Serving the33584 Area,(813) 299-2141,N/A,N/A,HVAC Services,33584
Flo-Rite Air conditioning and heating,Serving the33584 Area,(813) 380-9622,http:/www.flo-riteac.com,N/A,HVAC Services,33584
Carico electric LLC,Serving the33584 Area,(813) 270-9938,http:/caricoelectricservices.com,N/A,HVAC Services,33584
Trinity Air Quality Heating and Cooling,Serving the33584 Area,(727) 239-8119,http:/trinityairquality.com,N/A,HVAC Services,33584
"Air Cee Air Conditioning, Heating & Refrigeration",Serving the33584 Area,(813) 513-5100,https:/airceecooling.com,N/A,HVAC Services,33584
Sims AC Sales & Service,Serving the33584 Area,(813) 928-9540,https:/simsacsales.com,N/A,HVAC Services,33584
Triple H Air Conditioning Inc. Florida,Serving the33584 Area,(813) 655-4501,https:/hhhworks.com,N/A,HVAC Services,33584
Gulfwind Air Conditioning & Heating Inc,Serving the33584 Area,(813) 926-5721,http:/www.americanstandardair.com,N/A,HVAC Services,33584
Minardi Air Conditioning,Serving the33584 Area,(813) 253-2800,N/A,N/A,HVAC Services,33584
Titan Air Conditioning,Serving the33584 Area,(813) 453-9033,https:/www.titanairfl.com/about-us,N/A,HVAC Services,33584
Kulwicki Air Inc,Serving the33584 Area,(813) 985-1602,N/A,N/A,HVAC Services,33584
Easy AC,Serving the33584 Area,(813) 935-2665,http:/www.easyac.net,N/A,HVAC Services,33584
Service-Tech Corporation,Serving the33584 Area,(813) 327-5013,http:/www.service-techcorp.com,N/A,HVAC Services,33584
