name,address,phone_number,website,email,category,zip_code
Liz Buys Houses,Serving the 33584 area.,(833) 274-9691,N/A,N/A,Real Estate Agents,33584
Sell My House Fast,Serving the 33584 area.,(833) 275-0061,N/A,N/A,Real Estate Agents,33584
Paul & Assoc Real Estate Svc,"1810 North Armenia Avenue, Tampa, FL 33607",(813) 428-9307,N/A,N/A,Real Estate Agents,33584
The Main Real Estate Center,"812 W Old Hillsborough Ave
Seffner, FL 33584",(813) 712-8400,http://www.themainrealestatecenter.com,N/A,Real Estate Agents,33584
Cj\'s Real Estate Group Inc,"11780 Tampa Gateway Blvd
Seffner, FL 33584",(813) 899-4115,N/A,N/A,Real Estate Agents,33584
Alysia Blakey Realtor,"504 Covington Park St
Seffner, FL 33584",(856) 628-6744,N/A,N/A,Real Estate Agents,33584
William Ryan Homes,"452 Arch Ridge Loop
Seffner, FL 33584",(813) 657-5370,N/A,N/A,Real Estate Agents,33584
Hallock Enterprises Inc,"1313 Vinewood Dr
Seffner, FL 33584",(813) 739-9696,N/A,N/A,Real Estate Agents,33584
JK Diversified Construction & Development Corp,"901 old Darby st
Seffner, FL 33584",(813) 732-9076,N/A,N/A,Real Estate Agents,33584
Foster Inc Ken,"715 E Us Highway 92
Seffner, FL 33584",(813) 689-4492,N/A,N/A,Real Estate Agents,33584
J & J Mobile Home Park,"6324 Black Dairy Rd
Seffner, FL 33584",(813) 626-3008,N/A,N/A,Real Estate Agents,33584
C & O Mobile Home Transportation,"920 W Us Highway 92
Seffner, FL 33584",(813) 952-0878,N/A,N/A,Real Estate Agents,33584
Mango Terrace,"11531 Mango Terrace Dr
Seffner, FL 33584",(813) 524-7250,https://www.mangoterraceliving.com,N/A,Real Estate Agents,33584
Laurel Lakes Townhomes,"9281 Cape Verde Dr
Seffner, FL 33584",(813) 212-7794,https://laurellakesliving.com,N/A,Real Estate Agents,33584
Sun City Center Realtor Specialist - Denise Anderson,"Sun City Center, FL 33573",(813) 260-3166,http://www.intown-services.com,N/A,Real Estate Agents,33584
"We Realty, Inc","Riverview, FL 33578",(813) 235-4817,N/A,N/A,Real Estate Agents,33584
Apogee Realty Services,"Brandon, FL 33511",(813) 689-2119,N/A,N/A,Real Estate Agents,33584
Belleair Village Motel,Serving the33584 Area,(727) 416-7926,https://www.belleairlargohotel.com,N/A,Real Estate Agents,33584
House Buyer Network,Serving the33584 Area,(833) 274-7871,N/A,N/A,Real Estate Agents,33584
Barbara Hoye Realtor,"Tampa, FL 33609",(813) 352-7275,N/A,N/A,Real Estate Agents,33584
Herbert R Fisher Realty,"Tampa, FL 33607",(813) 879-1933,N/A,N/A,Real Estate Agents,33584
Prose Park View,"10881 Caladesi Ave
Tampa, FL 33610",(813) 723-3014,https://proseparkview.com,N/A,Real Estate Agents,33584
Michael Simpkins,"Apollo Beach, FL 33572",(813) 541-3307,N/A,N/A,Real Estate Agents,33584
South Tampa Realty Group,"Tampa, FL 33606",(813) 340-1433,http://www.sotampareal.com,N/A,Real Estate Agents,33584
General Investment & Development,"Lutz, FL 33559",(813) 948-6662,N/A,N/A,Real Estate Agents,33584
"PG Group, Inc","Tampa, FL 33625",(813) 363-2530,N/A,N/A,Real Estate Agents,33584
Home Choice,"Riverview, FL 33578",(813) 671-8798,http://homechoice.com,N/A,Real Estate Agents,33584
Century 21 Fisher & Associates,"Tampa, FL 33606",(813) 251-1638,http://c21fisher.com,N/A,Real Estate Agents,33584
Jan Jahnsen Realtor,"Tampa, FL 33618",(813) 777-9929,N/A,N/A,Real Estate Agents,33584
Debra Huether @ Keller Williams Realty,"Land O Lakes, FL 34638",(813) 482-1197,N/A,N/A,Real Estate Agents,33584
Juliesamazingproperties.Com,"Tampa, FL 33684",(813) 458-1860,N/A,N/A,Real Estate Agents,33584
Jay Benson- Richard Doyle Real Estate,"Tampa, FL 33624",(813) 298-5092,https://activerain.com/profile/jaybenson,N/A,Real Estate Agents,33584
Yassandra Guerra Tampa Realtor Coldwell Banker,"Tampa, FL 33618",(813) 410-5012,http:/coldwellbanker.com,N/A,Real Estate Agents,33584
A2Z Real Estate Solutions,"Tampa, FL 33618",(352) 410-4852,N/A,N/A,Real Estate Agents,33584
Rozon Future Homes,"Land O Lakes, FL 34637",(813) 810-8837,https:/floridaluxuryrealty.com/rozon,N/A,Real Estate Agents,33584
Bilingual Chinese Realtor,"Lutz, FL 33559",(702) 409-3753,https:/floridaluxuryrealty.com/lai,N/A,Real Estate Agents,33584
Fla Sunshine Homes,"Tampa, FL 33609",(407) 927-0648,N/A,N/A,Real Estate Agents,33584
Smart Homes of Tampa Bay,"Tampa, FL 33606",(813) 545-2100,https:/www.smarthomesoftampabay.com,N/A,Real Estate Agents,33584
ETEM Investment Solutions,"Tampa, FL 33615",(813) 587-2314,N/A,N/A,Real Estate Agents,33584
Rahjin Johnson | Impression Labs,"Tampa, FL 33635",(813) 421-0869,http:/rahjinjohnson.com,N/A,Real Estate Agents,33584
Bob Bell Realty,"Tampa, FL 33611",(813) 805-2227,N/A,N/A,Real Estate Agents,33584
Jewyll Realty,"Valrico, FL 33596",(813) 661-3656,N/A,N/A,Real Estate Agents,33584
Aval Realty,"Tampa, FL 33613",(813) 621-1105,N/A,N/A,Real Estate Agents,33584
The Rehab Outlet,"Tampa, FL 33604",(813) 935-3800,N/A,N/A,Real Estate Agents,33584
Wynn & Associates Inc,"Brandon, FL 33510",(813) 681-5505,N/A,N/A,Real Estate Agents,33584
Johnny Redondo Assoc Inc,"Tampa, FL 33613",(813) 289-3536,N/A,N/A,Real Estate Agents,33584
Fellers Schewe Scott & Roberts,"Tampa, FL 33613",(813) 792-9656,N/A,N/A,Real Estate Agents,33584
Clark And Company Real Estate Inc,"Tampa, FL 33617",(813) 985-4414,N/A,N/A,Real Estate Agents,33584
New Homes Info Cntr,"Tampa, FL 33613",(813) 229-8326,N/A,N/A,Real Estate Agents,33584
Hazelgrove Joan realtor,"Tampa, FL 33615",(813) 884-2023,N/A,N/A,Real Estate Agents,33584
Sun Castle Realty,"Tampa, FL 33614",(813) 235-4612,N/A,N/A,Real Estate Agents,33584
The Condo Catalog,"Tampa, FL 33613",(813) 626-5233,N/A,N/A,Real Estate Agents,33584
JG Management Inc,"Tampa, FL 33613",(813) 286-8445,N/A,N/A,Real Estate Agents,33584
Keystone Arbor Realty Inc,"Tampa, FL 33613",(813) 265-8833,N/A,N/A,Real Estate Agents,33584
Sun Bay Realty Group,"Tampa, FL 33634",(813) 884-3900,N/A,N/A,Real Estate Agents,33584
Nolan Castro Realty Faxline,"Tampa, FL 33613",(813) 871-2300,N/A,N/A,Real Estate Agents,33584
The Jbay Group - I Buy Houses Inc,"Lutz, FL 33549",(813) 909-4289,N/A,N/A,Real Estate Agents,33584
All County Property Management & Realty Inc,"Tampa, FL 33613",(813) 229-2578,N/A,N/A,Real Estate Agents,33584
Dickson Jim,"Lutz, FL 33559",(813) 948-4614,N/A,N/A,Real Estate Agents,33584
