name,address,phone_number,website,email,category,zip_code
Southern Oaks Homes Inc,"2213 Glen Mist Dr
Valrico, FL 33594",(813) 661-6799,http://southernoakshomes.com,N/A,Construction Companies,33594
Northern Quality Construction,"652 E Bloomingdale Ave
Brandon, FL 33511",(813) 661-4169,http://tampapoolsolar.com,N/A,Construction Companies,33594
Sunrise Homes Inc,"3631 Erindale Dr
Valrico, FL 33596",(813) 681-8419,http://sunrisehomescorp.com,N/A,Construction Companies,33594
Mitch Burley Construction,"638 E Bloomingdale Ave
Brandon, FL 33511",(813) 689-2015,http://burleyconstruction.com,N/A,Construction Companies,33594
G H Ruhle General Contractor,"605 W Bloomingdale Ave
Brandon, FL 33511",(813) 684-7398,N/A,N/A,Construction Companies,33594
Fca Construction & Sons,"2222 Durant Rd
Valrico, FL 33596",(813) 654-7067,N/A,N/A,Construction Companies,33594
Donald F Vold Construction Inc,"2209 Glen Mist Dr
Valrico, FL 33594",(813) 684-3688,N/A,N/A,Construction Companies,33594
Dana Construction,"1482 Bloomingdale Ave
Valrico, FL 33596",(813) 685-5871,http://instagram.com/dana_construction,N/A,Construction Companies,33594
Paddock Enterprises Inc,"2831 Springdell Cir
Valrico, FL 33596",(813) 653-1819,N/A,N/A,Construction Companies,33594
Siteline Building Solutions,"3636 Erindale Dr Ste 104
Valrico, FL 33596",(813) 654-9200,N/A,N/A,Construction Companies,33594
Hive Construction Group,"3654 Lithia Pinecrest Rd
Valrico, FL 33596",(813) 656-9540,https://www.hiveconstructiongroupfl.com,N/A,Construction Companies,33594
Coliseum Builders,"662 E Lumsden Rd
Brandon, FL 33511",(813) 655-4477,N/A,N/A,Construction Companies,33594
RKD Construction Inc,"3107 Fairlea Ln
Valrico, FL 33596",(813) 654-2903,http://rkdconstruction.com,N/A,Construction Companies,33594
Aztec Construction Co,"3711 Bobs Rd
Valrico, FL 33596",(813) 685-5292,N/A,N/A,Construction Companies,33594
Swank Construction Group,"3910 Kristin Pl
Valrico, FL 33596",(727) 870-2566,N/A,N/A,Construction Companies,33594
Sunrise Homes,"108 N Pinewood Ave
Brandon, FL 33510",(813) 654-1263,http://sunrisehomescorp.com,N/A,Construction Companies,33594
Johnson Brothers,"4316 New River Hills Pkwy
Valrico, FL 33596",(813) 643-3459,N/A,N/A,Construction Companies,33594
Davison D A Contracting Inc,"2404 Buckhorn Run Dr
Valrico, FL 33596",(813) 689-8358,N/A,N/A,Construction Companies,33594
Bulls Eye Construction Inc,"1210 Hawley Ct
Valrico, FL 33594",(813) 681-1955,N/A,N/A,Construction Companies,33594
Disaster Response Team,"813 E Bloomingdale Ave
Brandon, FL 33511",(813) 927-0009,N/A,N/A,Construction Companies,33594
Chadwell Homes Corp,"137 W Robertson St
Brandon, FL 33511",(813) 654-2881,http://chadwellhomes.com,N/A,Construction Companies,33594
Bret Construction,"539 Medical Oaks Ave
Brandon, FL 33511",(813) 261-8499,N/A,N/A,Construction Companies,33594
Green Development Services Inc,"2120 Oaklane Rd
Valrico, FL 33596",(813) 655-0757,N/A,N/A,Construction Companies,33594
Visk Construction,"2724 Buckhorn Preserve Blvd
Valrico, FL 33596",(813) 571-3500,N/A,N/A,Construction Companies,33594
Mitch Burley Construction Inc,"2240 Lithia Center Ln
Valrico, FL 33596",(813) 689-2015,http://burleyconstruction.com,N/A,Construction Companies,33594
Jet-BlackÂ® of Tampa Bay & Orlando,"1627 Featherband Dr
Valrico, FL 33594",(813) 309-2467,http://www.jet-black.com,N/A,Construction Companies,33594
D A Davison Contracting Inc,"PO Box 2572
Valrico, FL 33595",(813) 689-8358,N/A,N/A,Construction Companies,33594
Stull Contracting,"701 Orchard Isle Ct
Valrico, FL 33594",(813) 927-6643,N/A,N/A,Construction Companies,33594
Balfour Beatty Construction,"3736 Cold Creek Dr
Valrico, FL 33596",(703) 273-3311,https://www.balfourbeattyus.com/home,N/A,Construction Companies,33594
On Point Technology,"3712 Eaglewood St
Valrico, FL 33596",(813) 343-2459,N/A,N/A,Construction Companies,33594
Erc,"650 E Bloomingdale Ave
Brandon, FL 33511",(813) 621-5000,https://erccommunities.com/invest/schedule-a-call,N/A,Construction Companies,33594
Bernie Gifford,"534 N Larry Cir
Brandon, FL 33511",(813) 661-0091,N/A,N/A,Construction Companies,33594
Naylor & Sons Holdings Corp,"150 E Bloomingdale Ave
Brandon, FL 33511",(813) 360-0530,http://naylorandsonsholdingscorp.com,N/A,Construction Companies,33594
Star Construction,"4504 Gentrice Dr
Valrico, FL 33596",(813) 681-7046,N/A,N/A,Construction Companies,33594
Father & Son Builders,"108 N Pinewood Ave
Brandon, FL 33510",(813) 662-6663,N/A,N/A,Construction Companies,33594
Hoffman Jerry Construction Inc,"4536 Oak River Cir
Valrico, FL 33596",(813) 653-2023,N/A,N/A,Construction Companies,33594
Dana Construction Inc,"3908 Cedar Cay Cir
Valrico, FL 33596",(813) 685-5871,N/A,N/A,Construction Companies,33594
Renoir Construction,"3432 Graycliff Ln
Brandon, FL 33511",(813) 967-8100,https://renoirconstructionllc.com,N/A,Construction Companies,33594
Cobra Construction,"Valrico, FL 33594",(813) 681-1054,N/A,N/A,Construction Companies,33594
Steve Lynch Construction,Serving the33594 Area,(813) 716-2828,N/A,N/A,Construction Companies,33594
