name,address,phone_number,website,email,category,zip_code
Dirt & Dust Be Gone,1565 Bonnie Loop Rd,(813) 759-2025,N/A,N/A,Cleaning Services,33565
Parfait Maid,Serving the33565 Area,(813) 374-5545,N/A,N/A,Cleaning Services,33565
Cleanings By Doris,Serving the33565 Area,(813) 969-1798,N/A,N/A,Cleaning Services,33565
Kat's Kleaning Services,Serving the33565 Area,(813) 464-1764,http://katskleaningservices.tripod.com,N/A,Cleaning Services,33565
Fine Touch Cleaning Inc,2815 Wilder Park Dr,(813) 757-0140,N/A,N/A,Cleaning Services,33565
US Cleaning Service Inc,Serving the33565 Area,(813) 671-0336,http://www.unitedstatescleaningservice.com,N/A,Cleaning Services,33565
Eves Cleaning Services - Commercial and Residential,Serving the33565 Area,(407) 501-2503,N/A,N/A,Cleaning Services,33565
Authentic Custom Services Inc.,602 E Calhoun St,(813) 473-2271,http://www.authenticcustomservices.com,N/A,Cleaning Services,33565
Sunrise Cleaning Service,Serving the33565 Area,(813) 601-9700,https://sunrisecleaningservicetampa.com,N/A,Cleaning Services,33565
Suds N Mops Cleaning Services,Serving the33565 Area,(813) 851-3705,https://sudsnmops.com,N/A,Cleaning Services,33565
KLP Home Improvement,Serving the33565 Area,(727) 723-5190,http://www.klphomeimprovement.com,N/A,Cleaning Services,33565
Sister's Cleaning,PoBOX 3755,(813) 422-2033,N/A,N/A,Cleaning Services,33565
Bikini Housekeeping,Serving the33565 Area,(813) 322-4853,N/A,N/A,Cleaning Services,33565
Squeaky Clean Home & Office Cleaning,Serving the33565 Area,(813) 384-0554,N/A,N/A,Cleaning Services,33565
ecomaids of Greater Tampa-Riverview-Valrico,Serving the33565 Area,(813) 547-3716,https://www.ecomaids.com/greater-tampa-fl,N/A,Cleaning Services,33565
S & E Cleaning Services,Serving the33565 Area,(813) 551-7398,N/A,N/A,Cleaning Services,33565
Ontime-Anytime Services Inc,Serving the33565 Area,(813) 403-7838,N/A,N/A,Cleaning Services,33565
Clarkes Steam Cleaning,Serving the33565 Area,(321) 746-2933,https://clarkessteamcleaning.com,N/A,Cleaning Services,33565
Isabel's Cleaning Services,Serving the33565 Area,(813) 235-0663,N/A,N/A,Cleaning Services,33565
Supreme House Cleaning,Serving the33565 Area,(813) 203-6910,N/A,N/A,Cleaning Services,33565
Brittanys Cleaning,Serving the33565 Area,(727) 729-2735,N/A,N/A,Cleaning Services,33565
Lightning Cleaning Tampa,Serving the33565 Area,(813) 922-2110,https://lightningcleaningtampa.com,N/A,Cleaning Services,33565
Renewed Cleaning,Serving the33565 Area,(813) 498-2415,N/A,N/A,Cleaning Services,33565
Leo's Cleaning Service,Serving the33565 Area,(813) 965-7762,N/A,N/A,Cleaning Services,33565
Quality Cleaning Sevice,Serving the33565 Area,(813) 458-3254,N/A,N/A,Cleaning Services,33565
Cleaning's by Ruth,Serving the33565 Area,(813) 326-7624,N/A,N/A,Cleaning Services,33565
HANDY HELPERS BY DOROHY,N/A,(813) 454-2430,N/A,N/A,Cleaning Services,33565
Mrs Clean It,N/A,(727) 564-3771,N/A,N/A,Cleaning Services,33565
Murray's house and carpet cleanign,N/A,(813) 410-7256,http://www.murrayscarpethousecleaning.yolasite.com,N/A,Cleaning Services,33565
