name,address,phone_number,website,email,category,zip_code
Mid State Realty,4143 Moores Lake Rd,(813) 681-4861,N/A,N/A,Real Estate Agents,33527
Emergency Property Preservation,4413 Gallagher Rd,(813) 727-1092,N/A,N/A,Real Estate Agents,33527
Mike Phelps Property,107 Orchidgrove Ln,(813) 654-8497,N/A,N/A,Real Estate Agents,33527
Cole Properties Apartment Rentals,13880 E Us Highway 92,(813) 659-2601,N/A,N/A,Real Estate Agents,33527
Sun City Center Realtor Specialist - Denise Anderson,N/A,(813) 260-3166,http://www.intown-services.com,N/A,Real Estate Agents,33527
"We Realty, Inc",N/A,(813) 235-4817,N/A,N/A,Real Estate Agents,33527
Apogee Realty Services,N/A,(813) 689-2119,N/A,N/A,Real Estate Agents,33527
Belleair Village Motel,Serving the33527 Area,(727) 416-7926,https://www.belleairlargohotel.com,N/A,Real Estate Agents,33527
House Buyer Network,Serving the33527 Area,(833) 274-7871,N/A,N/A,Real Estate Agents,33527
Barbara Hoye Realtor,N/A,(813) 352-7275,N/A,N/A,Real Estate Agents,33527
Herbert R Fisher Realty,N/A,(813) 879-1933,N/A,N/A,Real Estate Agents,33527
Jewyll Realty,1628 Emerald Hill Way,(813) 661-3656,N/A,N/A,Real Estate Agents,33527
Horan Realty Group,11658 Calissia Dr,(727) 992-5566,http://www.zillow.com/profile/kevinandsuesellhomes,N/A,Real Estate Agents,33527
Michael Simpkins,N/A,(813) 541-3307,N/A,N/A,Real Estate Agents,33527
South Tampa Realty Group,N/A,(813) 340-1433,http://www.sotampareal.com,N/A,Real Estate Agents,33527
General Investment & Development,N/A,(813) 948-6662,N/A,N/A,Real Estate Agents,33527
"PG Group, Inc",N/A,(813) 363-2530,N/A,N/A,Real Estate Agents,33527
Home Choice,N/A,(813) 671-8798,http://homechoice.com,N/A,Real Estate Agents,33527
Century 21 Fisher & Associates,N/A,(813) 251-1638,http://c21fisher.com,N/A,Real Estate Agents,33527
Jan Jahnsen Realtor,N/A,(813) 777-9929,N/A,N/A,Real Estate Agents,33527
Kerry Mitchell Realtor/ BHHS HomeServices Fla Properties Grp.,N/A,(941) 779-4582,http://bhhsfloridaproperties.mobi/kerrymitchell,N/A,Real Estate Agents,33527
Debra Huether @ Keller Williams Realty,N/A,(813) 482-1197,N/A,N/A,Real Estate Agents,33527
Juliesamazingproperties.Com,N/A,(813) 458-1860,N/A,N/A,Real Estate Agents,33527
Jay Benson- Richard Doyle Real Estate,N/A,(813) 298-5092,https://activerain.com/profile/jaybenson,N/A,Real Estate Agents,33527
Yassandra Guerra Tampa Realtor Coldwell Banker,N/A,(813) 410-5012,http://coldwellbanker.com,N/A,Real Estate Agents,33527
A2Z Real Estate Solutions,N/A,(352) 410-4852,N/A,N/A,Real Estate Agents,33527
Rozon Future Homes,N/A,(813) 810-8837,https://floridaluxuryrealty.com/rozon,N/A,Real Estate Agents,33527
Bilingual Chinese Realtor,N/A,(702) 409-3753,https://floridaluxuryrealty.com/lai,N/A,Real Estate Agents,33527
Fla Sunshine Homes,N/A,(407) 927-0648,N/A,N/A,Real Estate Agents,33527
Smart Homes of Tampa Bay,N/A,(813) 545-2100,https://www.smarthomesoftampabay.com,N/A,Real Estate Agents,33527
ETEM Investment Solutions,N/A,(813) 587-2314,N/A,N/A,Real Estate Agents,33527
Rahjin Johnson | Impression Labs,N/A,(813) 421-0869,http://rahjinjohnson.com,N/A,Real Estate Agents,33527
Bob Bell Realty,N/A,(813) 805-2227,N/A,N/A,Real Estate Agents,33527
Aval Realty,N/A,(813) 621-1105,N/A,N/A,Real Estate Agents,33527
The Rehab Outlet,N/A,(813) 935-3800,N/A,N/A,Real Estate Agents,33527
Wynn & Associates Inc,N/A,(813) 681-5505,N/A,N/A,Real Estate Agents,33527
Johnny Redondo Assoc Inc,N/A,(813) 289-3536,N/A,N/A,Real Estate Agents,33527
Fellers Schewe Scott & Roberts,N/A,(813) 792-9656,N/A,N/A,Real Estate Agents,33527
Clark And Company Real Estate Inc,N/A,(813) 985-4414,N/A,N/A,Real Estate Agents,33527
New Homes Info Cntr,N/A,(813) 229-8326,N/A,N/A,Real Estate Agents,33527
Hazelgrove Joan realtor,N/A,(813) 884-2023,N/A,N/A,Real Estate Agents,33527
Sun Castle Realty,N/A,(813) 235-4612,N/A,N/A,Real Estate Agents,33527
The Condo Catalog,N/A,(813) 626-5233,N/A,N/A,Real Estate Agents,33527
JG Management Inc,N/A,(813) 286-8445,N/A,N/A,Real Estate Agents,33527
Keystone Arbor Realty Inc,N/A,(813) 265-8833,N/A,N/A,Real Estate Agents,33527
Sun Bay Realty Group,N/A,(813) 884-3900,N/A,N/A,Real Estate Agents,33527
Nolan Castro Realty Faxline,N/A,(813) 871-2300,N/A,N/A,Real Estate Agents,33527
The Jbay Group - I Buy Houses Inc,N/A,(813) 909-4289,N/A,N/A,Real Estate Agents,33527
All County Property Management & Realty Inc,N/A,(813) 229-2578,N/A,N/A,Real Estate Agents,33527
Dickson Jim,N/A,(813) 948-4614,N/A,N/A,Real Estate Agents,33527
Bay Area Realty Services,N/A,(813) 866-4122,N/A,N/A,Real Estate Agents,33527
Arthur Bill,N/A,(813) 695-2828,N/A,N/A,Real Estate Agents,33527
Bennett Properties,N/A,(813) 621-1150,N/A,N/A,Real Estate Agents,33527
The Realty Associates Fund,N/A,(813) 888-5618,N/A,N/A,Real Estate Agents,33527
Sun Cove Realty Inc,N/A,(813) 684-5858,N/A,N/A,Real Estate Agents,33527
Coldwell Banker Residential,N/A,(813) 251-8002,http://coldwellbanker.com,N/A,Real Estate Agents,33527
Robertson Realty,N/A,(813) 677-8282,N/A,N/A,Real Estate Agents,33527
