name,address,phone_number,website,email,category,zip_code
Florida Fence,"4607 N Florida Ave, Tampa, FL 33603",(813) 906-7947,http:/www.floridafence.com/,N/A,Landscaping Companies,33527
Southern Aggregates,"37245 State Road 54, Zephyrhills, FL 33542",(656) 226-2559,https:/www.southernrockyard.com/,N/A,Landscaping Companies,33527
Evergreen Total Landscape Services,"1904 Industrial Park Dr
Plant City, FL 33566",(813) 659-2778,N/A,N/A,Landscaping Companies,33527
Landscape Maintenance Professionals,"13050 E Us Highway 92
Dover, FL 33527",(813) 757-6500,http:/www.lmppro.com,N/A,Landscaping Companies,33527
Planscape Inc,"4002 Mcintosh Rd
Dover, FL 33527",(813) 659-0001,http:/www.planscapefl.com,N/A,Landscaping Companies,33527
American Landscape Services,"2306 Gallagher Rd
Dover, FL 33527",(813) 689-3987,N/A,N/A,Landscaping Companies,33527
Hardeman Landscape Nursery Inc,"3505 Gallagher Rd
Dover, FL 33527",(813) 689-5160,https:/www.hardemanlandscape.com,N/A,Landscaping Companies,33527
Tampa Landscape Solutions Inc,"13003 Tom Gallagher Rd
Dover, FL 33527",(813) 892-7062,N/A,N/A,Landscaping Companies,33527
Lawn Medic Landscaping & Irrigation,"4827 Beauchamp Rd
Plant City, FL 33563",(813) 957-8020,http:/www.lawnmedicland.com,N/A,Landscaping Companies,33527
Evergreen Tampa Bay,"1904 Industrial Park Dr
Plant City, FL 33566",(813) 659-2778,https:/www.evergreentampabay.com/blank-3,N/A,Landscaping Companies,33527
Cutrite,"4720 Dover Cliff Ct
Dover, FL 33527",(813) 684-2145,http:/www.landscape.com/Dover-fl/Cutrite-Lawn-Maintenance-Inc-62588.html,N/A,Landscaping Companies,33527
Kerby\'s Nursery & Landscaping,"2311 S Parsons Ave
Seffner, FL 33584",(813) 685-3265,http:/www.kerbysnursery.com,N/A,Landscaping Companies,33527
Landscape Surgeons,Serving the33527 Area,(813) 563-0826,N/A,N/A,Landscaping Companies,33527
Storms Landscaping Service,"815 N Valrico Rd
Valrico, FL 33594",(813) 689-8156,http:/stormslandscaping.com,N/A,Landscaping Companies,33527
Property Care S Pecialist,"2004 Florida St
Valrico, FL 33594",(813) 438-8875,N/A,N/A,Landscaping Companies,33527
Mobley D,"2715 Saint Anthony Dr
Valrico, FL 33594",(813) 685-8068,N/A,N/A,Landscaping Companies,33527
Colvin Property Maintenance,"Sun City, FL 33586",(813) 361-8511,N/A,N/A,Landscaping Companies,33527
Native Landscape & Drainage,"Tampa, FL 33619",(813) 690-5820,N/A,N/A,Landscaping Companies,33527
Diggs Lawn Pros,"Valrico, FL 33594",(813) 407-1804,http:/diggslawnpros.com,N/A,Landscaping Companies,33527
Hardrock Landscape Services,"Tampa, FL 33613",(813) 323-8708,N/A,N/A,Landscaping Companies,33527
Ameri-Services,"Tampa, FL 33619",(813) 635-0786,N/A,N/A,Landscaping Companies,33527
Lovett\'s Landscaping,Serving the33527 Area,(813) 345-8568,N/A,N/A,Landscaping Companies,33527
Crosscreek Landscaping,Serving the33527 Area,(813) 376-2422,http:/www.crosscreeklandscaping.com,N/A,Landscaping Companies,33527
"JOHNSON LANDSCAPING, INC.",Serving the33527 Area,(813) 361-3551,N/A,N/A,Landscaping Companies,33527
Jose Diaz Landscaping,Serving the33527 Area,(813) 546-9868,N/A,N/A,Landscaping Companies,33527
Worry Free Lawn & Landscape Inc,Serving the33527 Area,(813) 215-1138,N/A,N/A,Landscaping Companies,33527
Evergreen Total Landscape,Serving the33527 Area,(813) 659-2778,https:/www.evergreentampabay.com/blank-3,N/A,Landscaping Companies,33527
Mulch Master Installation,Serving the33527 Area,(813) 598-6298,N/A,N/A,Landscaping Companies,33527
Next Level Turf Management,Serving the33527 Area,(813) 650-8621,http:/nextlevelturf.net,N/A,Landscaping Companies,33527
Complete Land Care,Serving the33527 Area,(813) 681-5851,N/A,N/A,Landscaping Companies,33527
Little Brother\'s Yards,Serving the33527 Area,(813) 868-4883,N/A,N/A,Landscaping Companies,33527
Torres Landscaping,"1005 Whitehurst Rd
Plant City, FL 33563",(813) 359-7794,N/A,N/A,Landscaping Companies,33527
Wilkes Landscape Service,"704 N Sylvan Dr
Brandon, FL 33510",(813) 695-7258,N/A,N/A,Landscaping Companies,33527
New Age Landscapes,"612 Forest Hills Dr
Brandon, FL 33510",(813) 732-3079,N/A,N/A,Landscaping Companies,33527
JNR Lawn Maintenance & Tree Service LLC,"Tampa, FL 33613",(813) 401-3018,http://www.jnrtreeservice.com,N/A,Landscaping Companies,33527
R & J Lawn Care,"Gibsonton, FL 33534",(813) 540-5510,N/A,N/A,Landscaping Companies,33527
Landscaping Company by Lio,"Tampa, FL 33618",(352) 218-3765,N/A,N/A,Landscaping Companies,33527
Just Sod,"Sun City, FL 33586",(833) 587-8763,http://justsod.net,N/A,Landscaping Companies,33527
GCS Landscaping LLC,"Odessa, FL 33556",(727) 947-0770,https://gcslandscaping.com,N/A,Landscaping Companies,33527
Walker Landscaping and Lawn Care Service Inc,"Thonotosassa, FL 33592",(813) 791-7789,N/A,N/A,Landscaping Companies,33527
Show To Prove LLC,"Tampa, FL 33619",(656) 223-5873,N/A,N/A,Landscaping Companies,33527
Diaz M Landscaping INC,"Tampa, FL 33613",(813) 771-0286,https://landscaper-tampafl.com,N/A,Landscaping Companies,33527
Reyes 1994 LLC,"Tampa, FL 33604",(656) 213-2532,https://landscaperintampafl.com,N/A,Landscaping Companies,33527
Amy\'s Irrigation Repair & Landscaping Maintenance,"Ruskin, FL 33570",(813) 214-5006,https://landscaperruskinfl.com,N/A,Landscaping Companies,33527
Y & M Landscaping FS,"Tampa, FL 33615",(813) 410-9878,https://tampa-landscaperfl.com,N/A,Landscaping Companies,33527
Daniel Gomez Lawn Care Services LLC,"Seffner, FL 33584",(656) 213-2496,https://landscaperseffner.com,N/A,Landscaping Companies,33527
J S M Services,"Lutz, FL 33559",(813) 909-1759,N/A,N/A,Landscaping Companies,33527
C & S Landscaping & Lawn Svc,"Sun City Center, FL 33573",(813) 633-1706,N/A,N/A,Landscaping Companies,33527
Everything Outdoors,"Tampa, FL 33611",(813) 321-8733,https://www.everythingoutdoors.biz/contact-us,N/A,Landscaping Companies,33527
Precise Lawn Services,"Brandon, FL 33511",(813) 484-8703,N/A,N/A,Landscaping Companies,33527
YYY Landscaping,"Tampa, FL 33614",(813) 447-4552,N/A,N/A,Landscaping Companies,33527
Netherly\'s Landscape & Design,"Wesley Chapel, FL 33544",(813) 479-3021,https://netherlyslandscapeanddesign.com/contact-us,N/A,Landscaping Companies,33527
Landscape Maintenance,"Riverview, FL 33598",(813) 677-7236,N/A,N/A,Landscaping Companies,33527
At Ease Landscaping,"Land O Lakes, FL 34639",(813) 727-5204,https://www.ateaselandscaping.com,N/A,Landscaping Companies,33527
Lawn Patterns Of Tampa Bay Inc,"Brandon, FL 33511",(813) 662-2666,N/A,N/A,Landscaping Companies,33527
Oldsmar Landscaping,"Odessa, FL 33556",(813) 926-8293,N/A,N/A,Landscaping Companies,33527
H & J LANDSCAPING,Serving the33527 Area,(813) 516-1327,N/A,N/A,Landscaping Companies,33527
H. Hernandez Land Scaping,Serving the33527 Area,(813) 482-1507,N/A,N/A,Landscaping Companies,33527
Southern Pride Landscaping,Serving the33527 Area,(813) 752-5075,N/A,N/A,Landscaping Companies,33527
Lovely\'s Landscape,Serving the33527 Area,(407) 992-3875,N/A,N/A,Landscaping Companies,33527
Sunset Bay Enterprise,Serving the33527 Area,(813) 732-6070,N/A,N/A,Landscaping Companies,33527
