name,address,phone_number,website,email,category,zip_code
Air Masters of Tampa Bay,Serving the 33527 area.,(813) 279-6492,http://www.airmasters.net/,N/A,HVAC Services,33527
Air Masters Of Tampa Bay Inc.,Serving the 33527 area.,(727) 287-5187,http://www.airmasters.net/,N/A,HVAC Services,33527
Brandon Air Co,"2808 Blount Rd
Dover, FL 33527",(813) 689-0816,http://www.brandonairco.com,N/A,HVAC Services,33527
First Plumbing & Air Conditioning,"13932 Methodist Church Rd
Dover, FL 33527",(925) 743-3919,N/A,N/A,HVAC Services,33527
Strategic Air Conditioning,"Plant City, FL 33565",(813) 477-0214,http://www.strategicac.com,N/A,HVAC Services,33527
Merc Air,Serving the33527 Area,(813) 837-6372,https://www.hvaccontractortampa.com,N/A,HVAC Services,33527
J&L Air Conditioning and Heating,"Land O Lakes, FL 34638",(813) 996-2044,http://www.jlairconditioningandheating.com,N/A,HVAC Services,33527
AirTime Brandon,"110 N Mulrennan Rd
Valrico, FL 33594",(813) 501-6633,N/A,N/A,HVAC Services,33527
Valrico Air Conditioning,"2124 Valrico Heights Blvd
Valrico, FL 33594",(813) 438-3557,N/A,N/A,HVAC Services,33527
Airtime Air Conditioning,"110 N Mulrennan Rd
Valrico, FL 33594",(813) 654-2078,N/A,N/A,HVAC Services,33527
Alan\'s Air Conditioning Service Inc.,"1404 Mercantile Ct
Plant City, FL 33563",(813) 752-0821,https://alansairconditioning.com,N/A,HVAC Services,33527
Bridan Air Conditioning & Heating,"1991 E State Route 60 #1033
Valrico, FL 33594",(813) 235-0757,http://www.bridanairconditioningvalrico.com,N/A,HVAC Services,33527
E.D.S. Residential AC Repair,"1810 S Parsons Ave Unit 102
Seffner, FL 33584",(813) 951-8790,N/A,N/A,HVAC Services,33527
Flo-Rite Air Conditioning and Heating,"902 W Dr Martin Luther King Jr Blvd Ste 4
Plant City, FL 33563",(813) 380-9622,https://flo-riteac.com,N/A,HVAC Services,33527
Angler Air Conditioning & He,"108 N Pinewood Ave
Brandon, FL 33510",(813) 651-3485,http://www.onehourair.com,N/A,HVAC Services,33527
Good Ol Boys Air Conditioning,"Lutz, FL 33558",(813) 948-1409,N/A,N/A,HVAC Services,33527
Element Solutions Air Conditioning & Heating LLC,"Riverview, FL 33578",(813) 494-3611,http://elementsolutionsac.com,N/A,HVAC Services,33527
"Gulfwind Air Conditioning & Heating, Inc.","Lutz, FL 33558",(813) 926-5721,https://www.gulfwindair.com,N/A,HVAC Services,33527
"Air Cool A/C, Inc","Plant City, FL 33567",(813) 365-8116,https://www.aircoolnow.com,N/A,HVAC Services,33527
Air Conditioning Experts Inc,"Tampa, FL 33607",(407) 266-5464,N/A,N/A,HVAC Services,33527
"Air Treatment Heating & Cooling, LLC","Ruskin, FL 33570",(813) 624-3314,https://airtreatmentfl.com,N/A,HVAC Services,33527
Air24/7,"Tampa, FL 33605",(813) 488-7000,http://air24-7.com,N/A,HVAC Services,33527
JC AC Services,"Seffner, FL 33584",(813) 776-4709,https://jcacservices.com,N/A,HVAC Services,33527
A-1 B Cool Heat & Air,"Tampa, FL 33602",(813) 221-5850,N/A,N/A,HVAC Services,33527
"Chill Masters A/C, LLC","Tampa, FL 33613",(813) 265-2445,https://instantgiftpanel.com,N/A,HVAC Services,33527
"Airtime Air Conditioning and Heating 101, Inc","Odessa, FL 33556",(727) 491-7337,N/A,N/A,HVAC Services,33527
"Reliable Air Solutions of Tampa, LLC","Brandon, FL 33511",(813) 362-7648,N/A,N/A,HVAC Services,33527
Environmental Design Solutions,"Seffner, FL 33584",(813) 951-8790,N/A,N/A,HVAC Services,33527
Cooling Service,Serving the33527 Area,(941) 234-4050,http:/www.coolnow.com,N/A,HVAC Services,33527
Dav Pro Parts & Service,Serving the33527 Area,(813) 299-2141,N/A,N/A,HVAC Services,33527
Carico electric LLC,Serving the33527 Area,(813) 270-9938,http:/caricoelectricservices.com,N/A,HVAC Services,33527
Sun Air Services,Serving the33527 Area,(813) 642-3398,http:/www.sunairtampa.com,N/A,HVAC Services,33527
Trinity Air Quality Heating and Cooling,Serving the33527 Area,(727) 239-8119,http:/trinityairquality.com,N/A,HVAC Services,33527
"Air Cee Air Conditioning, Heating & Refrigeration",Serving the33527 Area,(813) 513-5100,https:/airceecooling.com,N/A,HVAC Services,33527
Sims AC Sales & Service,Serving the33527 Area,(813) 928-9540,https:/simsacsales.com,N/A,HVAC Services,33527
Triple H Air Conditioning Inc. Florida,Serving the33527 Area,(813) 655-4501,https:/hhhworks.com,N/A,HVAC Services,33527
Gulfwind Air Conditioning & Heating Inc,Serving the33527 Area,(813) 926-5721,http:/www.americanstandardair.com,N/A,HVAC Services,33527
Minardi Air Conditioning,Serving the33527 Area,(813) 253-2800,N/A,N/A,HVAC Services,33527
Titan Air Conditioning,Serving the33527 Area,(813) 453-9033,https:/www.titanairfl.com/about-us,N/A,HVAC Services,33527
Kulwicki Air Inc,Serving the33527 Area,(813) 985-1602,N/A,N/A,HVAC Services,33527
Easy AC,Serving the33527 Area,(813) 935-2665,http:/www.easyac.net,N/A,HVAC Services,33527
Service-Tech Corporation,Serving the33527 Area,(813) 327-5013,http:/www.service-techcorp.com,N/A,HVAC Services,33527
Best Home Services,Serving the33527 Area,(813) 461-7771,http:/www.getbest.com,N/A,HVAC Services,33527
Bruce Jones Air Conditioning,"7603 Kinard Rd
Plant City, FL 33565",(813) 986-0264,http:/brucejonesair.com,N/A,HVAC Services,33527
Service Experts Heating & Air Condition,"Ruskin, FL 33570",(813) 489-6301,http:/serviceexperts.com,N/A,HVAC Services,33527
Performance Air Conditioning & Heating Inc.,Serving the33527 Area,(813) 880-8761,http:/www.performance-ac.com,N/A,HVAC Services,33527
Castellano AC Services Inc.,"Tampa, FL 33614",(813) 587-1930,N/A,N/A,HVAC Services,33527
Ocean Air Conditioning & App,"Tampa, FL 33613",(813) 908-8333,N/A,N/A,HVAC Services,33527
Gulf Coast Air Systems,"5411 Comfort DR
Tampa, FL 33610",(813) 689-2082,https:/gulfcoastairsystems.com,N/A,HVAC Services,33527
economic heating and air coditioning,"6030 atticus ln
seffner, FL 33584",(813) 345-6621,N/A,N/A,HVAC Services,33527
Polar Bear Air,"1509 Carter Oaks Dr
Valrico, FL 33596",(813) 653-3536,N/A,N/A,HVAC Services,33527
HVAC Service in Plant City FL,"2402 James L Redman Pkwy,
Plant City, FL 33566",(309) 277-8896,N/A,N/A,HVAC Services,33527
Mario\'s Air Conditioning & Heating Plant City,"1866 James L Redman Pkwy Unit 1038
Plant City, FL 33563",(813) 515-9487,https:/mariosac.com,N/A,HVAC Services,33527
