name,address,phone_number,website,email,category,zip_code
Specialized Property Management Tampa,Serving the33527 Area,(813) 548-3032,https:/specializedpropertymanagementtampa.com,N/A,Property Managers,33527
Kelly&Hamilton Enterprises,Serving the33527 Area,(813) 852-6751,N/A,N/A,Property Managers,33527
CAM LICENSE ONLINE Florida,Serving the33527 Area,(813) 373-3921,https:/camlicenseonline.com,N/A,Property Managers,33527
PMI Elite Properties,Serving the33527 Area,(941) 219-5116,https:/www.palmettopropertymanagementinc.com,N/A,Property Managers,33527
PMI Pasco,Serving the33527 Area,(727) 602-8192,https:/www.landolakesvacationrentalmangement.com,N/A,Property Managers,33527
Pro Turf Property Management,Serving the33527 Area,(813) 661-1870,http:/proturfpm.com,N/A,Property Managers,33527
American Systems Inc,Serving the33527 Area,(813) 239-1161,https:/www.americansystems.com,N/A,Property Managers,33527
UNIC Property Management,Serving the33527 Area,(813) 298-9372,N/A,N/A,Property Managers,33527
Property Management,"103 S Alexander St
Plant City, FL 33563",(813) 747-1128,N/A,N/A,Property Managers,33527
King\'s Realty,"504 S Kings Ave
Brandon, FL 33511",(813) 689-6595,http://www.kings-realty.com,N/A,Property Managers,33527
Sandyne Enterprises,"401 N Parsons Ave
Brandon, FL 33510",(813) 661-6300,N/A,N/A,Property Managers,33527
"Larry Mikul, MD","512 Camino Real Ct
Brandon, FL 33510",(813) 689-7203,http://www.palmsatpalisades.com,N/A,Property Managers,33527
Windwings.Net,"605 SW Drane St
Plant City, FL 33563",(813) 765-4309,http://yellowpages.com/plant-city-fl/mip/windwings-net-546463839,N/A,Property Managers,33527
Gryffen,"1105 Lithia Pinecrest Rd
Brandon, FL 33511",(813) 643-8200,N/A,N/A,Property Managers,33527
Abbey Trace Homeowners Assoc,"1938 S Valrico Rd
Valrico, FL 33596",(813) 661-6396,N/A,N/A,Property Managers,33527
Robbins Property Associates,"529 S Parsons Ave
Brandon, FL 33511",(813) 684-1455,https://www.robbinspropertyllc.com/apartments/fl/brandon/lakeside-central-apartments,N/A,Property Managers,33527
Park Lake at Parsons,"208 Lake Parsons Grn
Brandon, FL 33511",(813) 409-3813,https://www.parklakescoa.com,N/A,Property Managers,33527
SPM Inc,"913 S Parsons Ave
Brandon, FL 33511",(941) 795-2524,http://spm.net,N/A,Property Managers,33527
Vintage Real Estate Services,"913 S Parsons Ave Ste B
Brandon, FL 33511",(813) 684-0001,http://vintagerealestate.net,N/A,Property Managers,33527
Rhodes Realty Group,"701 N Warnell St
Plant City, FL 33563",(813) 763-6043,https://www.rhodesrealtygroup.com,N/A,Property Managers,33527
Alliance Building Management,"1704 Cottageside Ct
Brandon, FL 33510",(813) 377-6774,https://alliance-bm.com/contact,N/A,Property Managers,33527
Real Property Management Empire,"2238 Lithia Center Ln
Valrico, FL 33596",(813) 867-7300,https://www.rpm-empire.com/?cid=LSTL_RPM000263,N/A,Property Managers,33527
BHHS Florida Properties Group,"3228 Lithia Pinecrest Rd
Valrico, FL 33596",(813) 643-9977,https://www.bhhsfloridaproperties.com,N/A,Property Managers,33527
Sun Lake Apts,"1267 Askew Dr
Brandon, FL 33511",(813) 681-7781,N/A,N/A,Property Managers,33527
Michael Real Estate Inc.,"669 W Lumsden Rd
Brandon, FL 33511",(813) 681-4848,http://mreicorp.com,N/A,Property Managers,33527
Real Property Management Freedom,"1210 Millennium Pkwy Ste 1017
Brandon, FL 33511",(813) 867-2667,https://www.freedomrpm.com/?cid=LSTL_RPM000263,N/A,Property Managers,33527
Barrett Henry Team,"713 W Lumsden Rd
Brandon, FL 33511",(813) 444-5927,N/A,N/A,Property Managers,33527
PMI Hillsborough,"1460 Oakfield Dr
Brandon, FL 33511",(813) 940-7676,https://www.brandonvacationrentalmanagementinc.com,N/A,Property Managers,33527
