name,address,phone_number,website,email,category,zip_code
JF's Construction Inc,"1406 S Parsons Ave
Seffner, FL 33584",(813) 655-4689,N/A,N/A,Construction Companies,33584
KB Home Williams Pointe,"Joe Ebert Rd
Seffner, FL 33584",(407) 587-3580,http://kbhome.com/new-homes-tampa-area/williams-pointe,N/A,Construction Companies,33584
Dentmon W E Construction Inc,"11708 E Us Highway 92
Seffner, FL 33584",(813) 620-0888,N/A,N/A,Construction Companies,33584
Rhodes Building & Remodeling,"1511 Alder Way
Brandon, FL 33510",(813) 571-9690,N/A,N/A,Construction Companies,33584
Tangent Construction Services,"719 Foxglove Pl
Brandon, FL 33510",(813) 381-3815,N/A,N/A,Construction Companies,33584
Fidelis Team Services,"1810 Prairie Grass Ln
Valrico, FL 33594",(813) 661-1515,N/A,N/A,Construction Companies,33584
Prince Contracting,"10210 Highland Manor Dr
Tampa, FL 33610",(813) 699-5870,https://www.princecontracting.com/html/contact.html,N/A,Construction Companies,33584
Dennis L Simmons Construction,"103 Robert Dr
Seffner, FL 33584",(813) 654-3678,N/A,N/A,Construction Companies,33584
J2 A2 Jv,"6921 Clay Pit Rd
Tampa, FL 33610",(813) 888-8861,N/A,N/A,Construction Companies,33584
Lee & Sons Building Contractors Inc,"910 W Old Hillsborough Ave
Seffner, FL 33584",(813) 653-3063,N/A,N/A,Construction Companies,33584
Goins Builders Inc,"122 Goins Dr
Seffner, FL 33584",(813) 685-0239,N/A,N/A,Construction Companies,33584
Valencia Carpentry Contractors,"2327 Merrily Cir S
Seffner, FL 33584",(813) 681-7561,http://www.valenciacarpentryinc.com,N/A,Construction Companies,33584
H M & R Service,"4816 Double D Cir
Tampa, FL 33610",(321) 900-9756,N/A,N/A,Construction Companies,33584
Progress Construction Company,"5006 Claymore Dr
Tampa, FL 33610",(813) 650-4294,N/A,N/A,Construction Companies,33584
Zolna Enterprises Inc,"1310 Windjammer Pl
Valrico, FL 33594",(813) 765-4765,N/A,N/A,Construction Companies,33584
MLB Construction Services,"2842 Broadway Center Blvd
Brandon, FL 33510",(813) 645-6391,http://mlbconstructionservices.com,N/A,Construction Companies,33584
Sutton Contracting Solutions,"2808 Broadway Center Blvd
Brandon, FL 33510",(813) 626-3700,http://www.suttoncontracting.com/our-services,N/A,Construction Companies,33584
Charles Perry Partners Inc,"10150 Highland Manor Dr
Tampa, FL 33610",(813) 979-9578,https://cppi.com/contact,N/A,Construction Companies,33584
Doyle Ray General Contractor,"6609 Plover Ct
Seffner, FL 33584",(813) 654-9135,N/A,N/A,Construction Companies,33584
W B Capps Construction,"6500 Motor Enclave Way
Tampa, FL 33610",(813) 546-5338,https://wbcapps.com,N/A,Construction Companies,33584
JTR Contractors Inc,"709 Green Cove Dr
Brandon, FL 33510",(813) 661-3150,https://bigtuna.com/contact,N/A,Construction Companies,33584
S&L M. Remodeling&Flooring,"4020 Mclane Dr
Tampa, FL 33610",(813) 458-4925,N/A,N/A,Construction Companies,33584
QDI Construction,"10002 Princess Palm Ave
Tampa, FL 33619",(813) 374-2413,https://www.qdi-construction.com/contact.html,N/A,Construction Companies,33584
Steve Lynch Construction,Serving the33584 Area,(813) 716-2828,N/A,N/A,Construction Companies,33584
Jeffrey Homes Inc,"708 Lithia Pinecrest Rd
Brandon, FL 33511",(813) 689-7161,http://jeffreyhomes.com,N/A,Construction Companies,33584
Ddp Holdings Inc,"1234 Tech Blvd
Tampa, FL 33619",(813) 712-2525,N/A,N/A,Construction Companies,33584
Professional Construction,"5905 Breckenridge Pkwy
Tampa, FL 33610",(813) 626-4530,N/A,N/A,Construction Companies,33584
Air Masters of Tampa Bay,Serving the33584 Area,(813) 279-6492,http://www.airmasters.net,N/A,Construction Companies,33584
Anita\'s Sewer & Septic,Serving the33584 Area,(813) 653-0181,N/A,N/A,Construction Companies,33584
Industrial Electric Testing Inc,Serving the33584 Area,(904) 479-5096,http://www.industrialelectrictesting.com,N/A,Construction Companies,33584
Keane Acoustics Inc.,Serving the33584 Area,(727) 644-3445,http://www.keaneacoustics.com,N/A,Construction Companies,33584
Rhino General Contracting Inc,Serving the33584 Area,(656) 230-0789,https://rhinogeneralcontractinginc.com,N/A,Construction Companies,33584
Florida Safety Contractors Inc,"11825 Jackson Rd
Thonotosassa, FL 33592",(813) 982-9172,N/A,N/A,Construction Companies,33584
Seacoast Construction,"333 N Falkenburg Rd
Tampa, FL 33619",(813) 684-7758,N/A,N/A,Construction Companies,33584
Professional Constructors Inc,"5810 Breckenridge Pkwy Ste C
Tampa, FL 33610",(813) 626-4530,N/A,N/A,Construction Companies,33584
Venture Construction,"105 N Falkenburg Rd Ste A
Tampa, FL 33619",(813) 689-7983,http://ventureconstruction.com,N/A,Construction Companies,33584
Tangent Construction Service,"4514 Oak Fair Blvd
Tampa, FL 33610",(813) 628-4411,N/A,N/A,Construction Companies,33584
Maronda Homes,"4407 Ashburn Square Dr
Tampa, FL 33610",(813) 630-1495,http://marondahomes.com,N/A,Construction Companies,33584
Loyd & Sons Construction,"108 N Pinewood Ave
Brandon, FL 33510",(813) 689-1551,N/A,N/A,Construction Companies,33584
