name,address,phone_number,website,email,category,zip_code
Hunters Lake Hoa,"1151 Tracey Ann Loop
Seffner, FL 33584",(813) 654-2482,N/A,N/A,Property Managers,33584
Specialized Property Management Tampa,Serving the33584 Area,(813) 548-3032,https://specializedpropertymanagementtampa.com,N/A,Property Managers,33584
Kelly&Hamilton Enterprises,Serving the33584 Area,(813) 852-6751,N/A,N/A,Property Managers,33584
CAM LICENSE ONLINE Florida,Serving the33584 Area,(813) 373-3921,https://camlicenseonline.com,N/A,Property Managers,33584
PMI Elite Properties,Serving the33584 Area,(941) 219-5116,https://www.palmettopropertymanagementinc.com,N/A,Property Managers,33584
PMI Pasco,Serving the33584 Area,(727) 602-8192,https://www.landolakesvacationrentalmangement.com,N/A,Property Managers,33584
Pro Turf Property Management,Serving the33584 Area,(813) 661-1870,http://proturfpm.com,N/A,Property Managers,33584
American Systems Inc,Serving the33584 Area,(813) 239-1161,https://www.americansystems.com,N/A,Property Managers,33584
UNIC Property Management,Serving the33584 Area,(813) 298-9372,N/A,N/A,Property Managers,33584
Prii Highland Oaks,"10210 Highland Manor Dr
Tampa, FL 33610",(813) 623-6910,N/A,N/A,Property Managers,33584
Pri Highlands,"10150 Highland Manor Dr
Tampa, FL 33610",(813) 628-8040,N/A,N/A,Property Managers,33584
Sanctuary at Highland Oaks,"10246 Douglas Oaks Cir
Tampa, FL 33610",(813) 246-4211,http://sanctuaryathighland.com,N/A,Property Managers,33584
Cottonwood Residential,"10246 Douglas Oaks Cir
Tampa, FL 33610",(801) 278-0700,https://www.sanctuaryathighland.com/mapsanddirections,N/A,Property Managers,33584
Brookdale,"9720 Princess Palm Ave
Tampa, FL 33619",(813) 372-1305,N/A,N/A,Property Managers,33584
Franklin Property and Developmen,"10109 Lake Ave
Tampa, FL 33619",(813) 630-9280,N/A,N/A,Property Managers,33584
Gibson Calvin,"4723 Ashburn Pond Way
Tampa, FL 33610",(813) 621-1623,N/A,N/A,Property Managers,33584
Barken Property,"1509 Hobbs St
Tampa, FL 33619",(813) 315-9005,N/A,N/A,Property Managers,33584
Farrell Properties,"10260 Fisher Ave
Tampa, FL 33619",(813) 381-3867,N/A,N/A,Property Managers,33584
Sable Park,"4006 Sabal Park Dr
Tampa, FL 33610",(813) 621-6611,N/A,N/A,Property Managers,33584
Blue Roc Premier,"3917 Riga Blvd
Tampa, FL 33619",(813) 252-3149,https://bluerocpremier.com,N/A,Property Managers,33584
Pinnacle,"105 Westchester Oak Ln
Brandon, FL 33510",(813) 603-9525,N/A,N/A,Property Managers,33584
Concord Management Ltd,"1722 Lakewood Shores Ln
Brandon, FL 33510",(813) 571-8300,N/A,N/A,Property Managers,33584
Saball Ridge II,"9048 Hilltop Meadow Loop
Tampa, FL 33610",(813) 344-1070,http://sabalridgefl.com,N/A,Property Managers,33584
Burley Properties,"1423 Oakfield Dr
Brandon, FL 33511",(813) 685-1585,http://www.burleyproperties.com,N/A,Property Managers,33584
Inland Continental Property Management Corp,"3802 Coconut Palm Dr
Tampa, FL 33619",(813) 621-4359,N/A,N/A,Property Managers,33584
