name,address,phone_number,website,email,category,zip_code
Optimal Property Inspections,"9230 Sunnyoak Dr
Riverview, FL 33569",(610) 428-5764,N/A,N/A,Home Inspectors,33594
Fackler Home Inspection,"8215 Stoner Rd
Riverview, FL 33569",(813) 677-9287,https://facklerhomeinspection.com,N/A,Home Inspectors,33594
All Pro Home Inspection Service,"12828 Raysbrook Dr
Riverview, FL 33569",(813) 672-0997,http://www.allprohomeinspect.com,N/A,Home Inspectors,33594
AmeriSpec,"12856 Raysbrook Dr
Riverview, FL 33569",(813) 672-4250,http://www.amerispec.com,N/A,Home Inspectors,33594
Home Pro,Serving the33594 Area,(813) 528-3505,http:/www.homeproswf.com,N/A,Home Inspectors,33594
AmeriSpec Inspection Services,Serving the33594 Area,(813) 442-1080,http:/www.amerispechillsborough.com,N/A,Home Inspectors,33594
Neal Inspections,Serving the33594 Area,(813) 544-6325,https:/nealinspections.com,N/A,Home Inspectors,33594
Valueguard Inspections,Serving the33594 Area,(813) 401-2563,https:/valueguardfl.com,N/A,Home Inspectors,33594
Elemental Solutions,Serving the33594 Area,(813) 343-0321,https:/gcfla.com,N/A,Home Inspectors,33594
A Buyer\'s Choice Home Inspections Tampa NW with Tony Castellanos,Serving the33594 Area,(813) 618-8309,https:/abuyerschoice.com/inspector/tony-castellanos,N/A,Home Inspectors,33594
Bungalow Inspections,Serving the33594 Area,(813) 670-8408,http:/bungalowhomeinspections.com,N/A,Home Inspectors,33594
Apex Sight Solutions,Serving the33594 Area,(813) 860-8374,https:/apexsightsolutions.com,N/A,Home Inspectors,33594
AA Alert Home & Insurance Inspection,Serving the33594 Area,(813) 237-5090,N/A,N/A,Home Inspectors,33594
Thomas Inspection Services,Serving the33594 Area,(813) 204-9782,N/A,N/A,Home Inspectors,33594
Sloman Ron Home Inspections,Serving the33594 Area,(813) 839-8180,N/A,N/A,Home Inspectors,33594
WIN Home Inspection,Serving the33594 Area,(813) 774-1080,https:/newtampa.wini.com/?utm_source=GMB_listing&utm_medium=organic,N/A,Home Inspectors,33594
Affordable Home Inspection,Serving the33594 Area,(813) 625-6241,N/A,N/A,Home Inspectors,33594
ABC Home & Property Inspection,Serving the33594 Area,(813) 648-3700,N/A,N/A,Home Inspectors,33594
Home Inspection Now Inc,Serving the33594 Area,(813) 789-6700,N/A,N/A,Home Inspectors,33594
HouseMaster Serving South Tampa,Serving the33594 Area,(813) 545-0185,https:/housemaster.com/tampa?cid=LSTL_HMS000373,N/A,Home Inspectors,33594
Absolute Home Services,"10907 Lani Ln
Lithia, FL 33547",(352) 209-2387,N/A,N/A,Home Inspectors,33594
Tracer Inspections,"11238 Wembley Landing Dr
Lithia, FL 33547",(813) 842-0740,N/A,N/A,Home Inspectors,33594
Bayside Building Consultants,"11704 Arbor Mead Ave
Riverview, FL 33569",(813) 755-3010,https:/baysidebuildingconsultants.com,N/A,Home Inspectors,33594
Home Check Inspections,"11805 Holly Crest Ln
Riverview, FL 33569",(813) 261-0002,http:/homecheckfl.com,N/A,Home Inspectors,33594
