name,address,phone_number,website,email,category,zip_code
Clean as a Whistle,Po Box 33509,(706) 340-4462,N/A,N/A,Cleaning Services,33594
The Cleaning Authority,1603 Bloomingdale Ave Ste B,(813) 651-5959,N/A,N/A,Cleaning Services,33594
Sudsy Buckets Home Cleaning,4925 Willow Ridge Ter,(813) 489-5160,https://sudsybucketscleaning.com,N/A,Cleaning Services,33594
Imagine Maid Service,1808 Stillmeadow Dr,(813) 451-8416,N/A,N/A,Cleaning Services,33594
Innovative Clear Concepts,3022 Avalon Terrace Dr,(813) 750-3761,N/A,N/A,Cleaning Services,33594
Pura Home Cleaning,1032 E Brandon Blvd,(813) 945-7872,https://www.purahomecleaning.com,N/A,Cleaning Services,33594
Tampa House Cleaning,2511 Groveway Dr,(813) 606-5048,N/A,N/A,Cleaning Services,33594
On the Spot Cleaning,N/A,(813) 335-5605,N/A,N/A,Cleaning Services,33594
Parfait Maid,Serving the33594 Area,(813) 374-5545,N/A,N/A,Cleaning Services,33594
Cleaning By Sharon,N/A,(813) 671-9024,N/A,N/A,Cleaning Services,33594
Cleanings By Doris,Serving the33594 Area,(813) 969-1798,N/A,N/A,Cleaning Services,33594
Kat's Kleaning Services,Serving the33594 Area,(813) 464-1764,http://katskleaningservices.tripod.com,N/A,Cleaning Services,33594
Crystal Clean Cleaning Service,N/A,(561) 305-4065,N/A,N/A,Cleaning Services,33594
A Thrifty Maid Professional Cleaning Service,N/A,(813) 963-3334,N/A,N/A,Cleaning Services,33594
US Cleaning Service Inc,Serving the33594 Area,(813) 671-0336,http://www.unitedstatescleaningservice.com,N/A,Cleaning Services,33594
The Real Maids,N/A,(813) 999-0059,http://www.therealmaids.com,N/A,Cleaning Services,33594
"A-1 Maid Service, Inc.",N/A,(727) 447-5848,http://www.a1maidservice.com,N/A,Cleaning Services,33594
Xpress Cleaning Crew,Dale Mabry,(813) 816-2739,N/A,N/A,Cleaning Services,33594
Your Day Off Maid Services,N/A,(813) 507-4933,N/A,N/A,Cleaning Services,33594
Eves Cleaning Services - Commercial and Residential,Serving the33594 Area,(407) 501-2503,N/A,N/A,Cleaning Services,33594
Evans Family Cleaning Service,N/A,(813) 841-3630,N/A,N/A,Cleaning Services,33594
Maid in Bliss,N/A,(813) 410-4949,http://maids.com,N/A,Cleaning Services,33594
RDL King Of Cleaning and Other Thing LLC,N/A,(656) 245-0227,http://cleaningsvcfl.com,N/A,Cleaning Services,33594
Ann's Personal Touch Cleaning Service,N/A,(813) 298-6095,https://annspersonaltouchcleaning.gosite.com/pet-adoption-contact,N/A,Cleaning Services,33594
Office Pride Commercial Cleaning Services,N/A,(813) 448-6373,N/A,N/A,Cleaning Services,33594
Sunrise Cleaning Service,Serving the33594 Area,(813) 601-9700,https://sunrisecleaningservicetampa.com,N/A,Cleaning Services,33594
Suds N Mops Cleaning Services,Serving the33594 Area,(813) 851-3705,https://sudsnmops.com,N/A,Cleaning Services,33594
KLP Home Improvement,Serving the33594 Area,(727) 723-5190,http://www.klphomeimprovement.com,N/A,Cleaning Services,33594
Homamis Cleaning LLC,6952 Marble Fawn Pl,(813) 785-5108,N/A,N/A,Cleaning Services,33594
B.C. Brown LLC,6037 Osprey Lake Cir,(813) 369-2042,http://bcbrown8806.wix.com/bcbrownllc,N/A,Cleaning Services,33594
Henrietta's Way,N/A,(813) 802-9696,N/A,N/A,Cleaning Services,33594
Full Force Home Cleaning,N/A,(813) 297-6116,N/A,N/A,Cleaning Services,33594
OG Sparks Cleaning Services,N/A,(813) 409-0612,N/A,N/A,Cleaning Services,33594
Blossom  Cleaning Services,N/A,(813) 900-8240,N/A,N/A,Cleaning Services,33594
Isa Cleaning Services,N/A,(786) 483-0225,N/A,N/A,Cleaning Services,33594
Wall to Wall,N/A,(813) 692-5377,N/A,N/A,Cleaning Services,33594
Sparkling Clean Homes,N/A,(813) 361-3887,N/A,N/A,Cleaning Services,33594
Mercy's Cleaning,N/A,(813) 706-3626,N/A,N/A,Cleaning Services,33594
K & P Cleaning Services LLC,N/A,(813) 692-9956,N/A,N/A,Cleaning Services,33594
Magela Cleaning Services LLC,N/A,(813) 330-4751,N/A,N/A,Cleaning Services,33594
Maid And Butler,N/A,(813) 571-1191,N/A,N/A,Cleaning Services,33594
Diva Girls Cleaning,N/A,(877) 747-9026,N/A,N/A,Cleaning Services,33594
Coast to Coast Maids of Tampa,N/A,(813) 388-3889,N/A,N/A,Cleaning Services,33594
Spotless & Shine Cleaning Service,N/A,(813) 382-7520,N/A,N/A,Cleaning Services,33594
Bikini Housekeeping,Serving the33594 Area,(813) 322-4853,N/A,N/A,Cleaning Services,33594
Squeaky Clean Home & Office Cleaning,Serving the33594 Area,(813) 384-0554,N/A,N/A,Cleaning Services,33594
ecomaids of Greater Tampa-Riverview-Valrico,Serving the33594 Area,(813) 547-3716,https://www.ecomaids.com/greater-tampa-fl,N/A,Cleaning Services,33594
S & E Cleaning Services,Serving the33594 Area,(813) 551-7398,N/A,N/A,Cleaning Services,33594
Ontime-Anytime Services Inc,Serving the33594 Area,(813) 403-7838,N/A,N/A,Cleaning Services,33594
Clarkes Steam Cleaning,Serving the33594 Area,(321) 746-2933,https://clarkessteamcleaning.com,N/A,Cleaning Services,33594
Isabel's Cleaning Services,Serving the33594 Area,(813) 235-0663,N/A,N/A,Cleaning Services,33594
Supreme House Cleaning,Serving the33594 Area,(813) 203-6910,N/A,N/A,Cleaning Services,33594
Brittanys Cleaning,Serving the33594 Area,(727) 729-2735,N/A,N/A,Cleaning Services,33594
Lightning Cleaning Tampa,Serving the33594 Area,(813) 922-2110,https://lightningcleaningtampa.com,N/A,Cleaning Services,33594
Renewed Cleaning,Serving the33594 Area,(813) 498-2415,N/A,N/A,Cleaning Services,33594
House Cleaning - My Home Set,N/A,(813) 433-6136,N/A,N/A,Cleaning Services,33594
Natalie's Cleaning Service,N/A,(813) 447-2568,N/A,N/A,Cleaning Services,33594
Bright & Light,Parson's reserve Ct,(813) 405-9678,N/A,N/A,Cleaning Services,33594
Leo's Cleaning Service,Serving the33594 Area,(813) 965-7762,N/A,N/A,Cleaning Services,33594
