name,address,phone_number,website,email,category,zip_code
Tampa Irrigation & Landscape Service,"6210 County Road 579
Seffner, FL 33584",(813) 546-8307,N/A,N/A,Landscaping Companies,33584
"Reeder\'s Landscaping, Inc","710 E Dr Martin Luther King Jr Blvd
Seffner, FL 33584",(866) 206-2742,https://www.reederslandscaping.com/reeders-landscaping-tampa-fl.php,N/A,Landscaping Companies,33584
Ameriscape Service Inc.,"9702 Harney Rd
Thonotosassa, FL 33592",(813) 948-3938,http://www.ameriscapeusa.com,N/A,Landscaping Companies,33584
Landscape Surgeons,Serving the33584 Area,(813) 563-0826,N/A,N/A,Landscaping Companies,33584
NPC Landscaping,"6441 Eureka Springs Rd
Tampa, FL 33610",(813) 988-3782,N/A,N/A,Landscaping Companies,33584
Five Star Landscape Services,"10442 Timmons Rd
Thonotosassa, FL 33592",(813) 986-9323,N/A,N/A,Landscaping Companies,33584
Sun State Landscaping,"5803 Breckenridge Pkwy
Tampa, FL 33610",(813) 621-2090,http://www.sunstatelandscaping.com,N/A,Landscaping Companies,33584
Lovett\'s Landscaping,Serving the33584 Area,(813) 345-8568,N/A,N/A,Landscaping Companies,33584
Crosscreek Landscaping,Serving the33584 Area,(813) 376-2422,http://www.crosscreeklandscaping.com,N/A,Landscaping Companies,33584
"JOHNSON LANDSCAPING, INC.",Serving the33584 Area,(813) 361-3551,N/A,N/A,Landscaping Companies,33584
Jose Diaz Landscaping,Serving the33584 Area,(813) 546-9868,N/A,N/A,Landscaping Companies,33584
Worry Free Lawn & Landscape Inc,Serving the33584 Area,(813) 215-1138,N/A,N/A,Landscaping Companies,33584
Evergreen Total Landscape,Serving the33584 Area,(813) 659-2778,https://www.evergreentampabay.com/blank-3,N/A,Landscaping Companies,33584
Mulch Master Installation,Serving the33584 Area,(813) 598-6298,N/A,N/A,Landscaping Companies,33584
Next Level Turf Management,Serving the33584 Area,(813) 650-8621,http://nextlevelturf.net,N/A,Landscaping Companies,33584
Complete Land Care,Serving the33584 Area,(813) 681-5851,N/A,N/A,Landscaping Companies,33584
Little Brother\'s Yards,Serving the33584 Area,(813) 868-4883,N/A,N/A,Landscaping Companies,33584
Southern Landscaping & Irrigation,"10529 Skewlee Rd
Thonotosassa, FL 33592",(813) 690-1742,https://abcirrigationandlandscaping.com,N/A,Landscaping Companies,33584
Tampa Bay Landscaping,"5821 Maple Ln
Tampa, FL 33610",(813) 405-6247,N/A,N/A,Landscaping Companies,33584
All Granular Lawn Management,"5805 Breckenridge Pkwy
Tampa, FL 33610",(813) 849-2497,N/A,N/A,Landscaping Companies,33584
Maximow Landscape,"9740 Harney Rd
Thonotosassa, FL 33592",(813) 982-2455,N/A,N/A,Landscaping Companies,33584
ASI Landscape Management Inc,"9702 Harney Rd
Thonotosassa, FL 33592",(813) 948-3938,https://www.asilandscapemgt.com/about-us/careers,N/A,Landscaping Companies,33584
Valleycrest Landscape Maintenance,"9713 Palm River Rd
Tampa, FL 33619",(813) 621-6905,http://valleycrest.com,N/A,Landscaping Companies,33584
Victory Cuts Landscaping,"8602 Temple Terrace Hwy
Tampa, FL 33637",(813) 512-8010,N/A,N/A,Landscaping Companies,33584
