name,address,phone_number,website,email,category,zip_code
Iron Men Plumbing,"2704 Golf Heights Cir
Valrico, FL 33596",(813) 215-0236,https://www.ironmenplumbing.com,N/A,Plumbing Companies,33594
Reliable Plumbers Service,"3313 Lithia Pinecrest Rd
Valrico, FL 33596",(813) 603-3439,N/A,N/A,Plumbing Companies,33594
All things plumbing inc,"2606 Valencia Grove Dr
Valrico, FL 33596",(813) 601-8684,N/A,N/A,Plumbing Companies,33594
A Good Plumber Inc.,"3433 Lithia Pinecrest Rd
Valrico, FL 33596",(813) 661-2090,N/A,N/A,Plumbing Companies,33594
Brandon Plumbing Service,"1113 Savannah Landings Ave
Valrico, FL 33596",(813) 643-0018,N/A,N/A,Plumbing Companies,33594
Ace Plumbing Service Inc,"610 Bloomingfield Dr
Brandon, FL 33511",(813) 657-6080,N/A,N/A,Plumbing Companies,33594
Drainworks Plumbing & Gas,"150 E Bloomingdale Ave Unit 207
Brandon, FL 33511",(813) 707-3215,N/A,N/A,Plumbing Companies,33594
Presidential Plumbing Service,"3810 Spruce Pine Dr
Valrico, FL 33596",(813) 388-9357,N/A,N/A,Plumbing Companies,33594
Rls Plumbing,"610 Hitching Post Dr
Brandon, FL 33511",(813) 436-0939,N/A,N/A,Plumbing Companies,33594
Elite Plumbing Designs of Tampa Bay Inc.,"1903 Bryan Rd
Brandon, FL 33511",(813) 661-8004,http:/eliteplumbingdesigns.com,N/A,Plumbing Companies,33594
Savoie Raymond Plumbing,"111 Ridgewood Ave
Brandon, FL 33510",(813) 689-8032,N/A,N/A,Plumbing Companies,33594
Walden\'s Plumbing Repair,"101 Craft Rd
Brandon, FL 33511",(813) 685-1368,N/A,N/A,Plumbing Companies,33594
Above & Beyond Plumbing & Rooter Inc,Serving the33594 Area,(813) 963-1580,N/A,N/A,Plumbing Companies,33594
Riverview Plumbing,Serving the33594 Area,(656) 207-6042,https:/voxservices.net/plumbing/riverview/fl/1107/riverviewplumbing,N/A,Plumbing Companies,33594
David E Albaugh Plumbing,Serving the33594 Area,(813) 298-6638,https:/www.xstreamirrigationllc.com,N/A,Plumbing Companies,33594
Paul Wood Plumbing Inc.,Serving the33594 Area,(813) 641-1387,https:/www.paulwoodplumbinginc.com/default.html,N/A,Plumbing Companies,33594
United Plumbing & Drain,Serving the33594 Area,(813) 546-9411,http:/www.unitedplumbing-drain.com,N/A,Plumbing Companies,33594
ARS Rescue Rooter,Serving the33594 Area,(813) 995-7105,http:/www.ars.com,N/A,Plumbing Companies,33594
Bay 2 Bay Plumbing & Drains,Serving the33594 Area,(813) 701-4224,https:/bay2bayplumbing.com,N/A,Plumbing Companies,33594
Da Drain Fellas,Serving the33594 Area,(813) 540-7022,http:/www.drainfellasllc.com,N/A,Plumbing Companies,33594
A Stone Plumbing Company,"607 Pauls Dr
Brandon, FL 33511",(813) 681-1900,N/A,N/A,Plumbing Companies,33594
