name,address,phone_number,website,email,category,zip_code
Compare Roofing Experts,Serving the 33594 area.,(888) 906-6670,N/A,N/A,Roofing Contractors,33594
Bill Shields Roofing,Serving the 33594 area.,(813) 915-6714,http://www.billshieldsroofing.com/,N/A,Roofing Contractors,33594
Quality Roofing and Construction,Serving the 33594 area.,(813) 932-8005,https://www.mathewsqualityrooftampa.com/,N/A,Roofing Contractors,33594
Willis Roofing & Waterproofing,"4020 Valrico Grove Dr
Valrico, FL 33594",(813) 379-2840,https://willisroof.com,N/A,Roofing Contractors,33594
Wayne Gonzalez Roofing,"1602 Palace Ct
Valrico, FL 33594",(813) 653-2279,N/A,N/A,Roofing Contractors,33594
Blattner Premium Roofing,"402 N Miller Rd
Valrico, FL 33594",(813) 669-5741,N/A,N/A,Roofing Contractors,33594
Cardinal Roofing,"3108 Barkley Ln
Valrico, FL 33596",(813) 689-7663,http://www.cardinalroofingandsolar.com,N/A,Roofing Contractors,33594
Shingle Masters Roofing & Construction Services Inc,"2502 Culbreath Cove Ct
Valrico, FL 33596",(813) 661-4600,http://www.shingle-masters.com,N/A,Roofing Contractors,33594
Valrico Rooftop Co,"3353 Lithia Pinecrest Rd
Valrico, FL 33596",(813) 502-1105,N/A,N/A,Roofing Contractors,33594
Roof-Pro of Tampa Bay,"3306 Little Rd
Valrico, FL 33596",(813) 643-7663,N/A,N/A,Roofing Contractors,33594
DCH Roofing Inc,"2323 Longmore Cir
Valrico, FL 33596",(813) 571-0788,N/A,N/A,Roofing Contractors,33594
Aderhold Roofing Corporation,"2424 Arborwood Dr
Valrico, FL 33596",(813) 526-2710,http://www.aderholdroofing.com,N/A,Roofing Contractors,33594
"Fidelis Team Services, Inc.","3433 Lithia Pinecrest Rd
Valrico, FL 33596",(813) 600-1791,N/A,N/A,Roofing Contractors,33594
"Certified Roofers & General Contractors, Inc.","4331 Lynx Paw Trl
Valrico, FL 33596",(813) 643-8333,https://certifiedroofers.com,N/A,Roofing Contractors,33594
Center Point Roofing,"401 Bracken Ln
Brandon, FL 33511",(813) 661-5814,http://yellowpages.com/brandon-fl/mip/center-point-roofing-4202840,N/A,Roofing Contractors,33594
"Roofing Service in Mango, FL","27 Market St
Mango, FL 33550",(813) 397-5488,N/A,N/A,Roofing Contractors,33594
Mango Roofing,"27 Market St
Mango, FL 33550",(813) 397-5488,N/A,N/A,Roofing Contractors,33594
Harbor Roofing,"644 E Bloomingdale Ave
Brandon, FL 33511",(813) 330-7022,https://harborroofing.com,N/A,Roofing Contractors,33594
Pink Roofers,"1119 Tuscanny St
Brandon, FL 33511",(407) 208-2708,https://www.pinkroofers.com/home,N/A,Roofing Contractors,33594
Roofing Company Brandon FL,"244244 E Brandon Blvd
Brandon, FL 33511",(813) 397-5488,N/A,N/A,Roofing Contractors,33594
Nexgen Roofing Service,"435 E Brandon Blvd Ste B
Brandon, FL 33511",(813) 438-8500,http://instagram.com/castlecreole,N/A,Roofing Contractors,33594
North American Roof,"315 E Robertson St
Brandon, FL 33511",(813) 661-6214,http://naroofing.com,N/A,Roofing Contractors,33594
Jacobs\' Roofing Inc.,"2216 John Moore Rd
Brandon, FL 33511",(813) 917-4698,http://jacobsroofing.net,N/A,Roofing Contractors,33594
Millard Roofing,"Po Box 6790
Brandon, FL 33508",(813) 661-4522,http://www.millardroofing.com,N/A,Roofing Contractors,33594
Handyman Roofing Co,Serving the33594 Area,(813) 878-0962,http://www.handymanroofing.com,N/A,Roofing Contractors,33594
"Solar Roof Solutions, Inc.",Serving the33594 Area,(813) 999-4918,http://solarroofsolutions.net,N/A,Roofing Contractors,33594
Tampa Roofing Co,Serving the33594 Area,(813) 238-6436,https://tamparoofing.com/about-us,N/A,Roofing Contractors,33594
"Local Roofers Brandon, FL","24 Creek Ave
Brandon, FL 33511",(813) 397-5488,N/A,N/A,Roofing Contractors,33594
