name,address,phone_number,website,email,category,zip_code
Liz Buys Houses,Serving the 33594 area.,(833) 274-9691,N/A,N/A,Real Estate Agents,33594
Sell My House Fast,Serving the 33594 area.,(833) 275-0061,N/A,N/A,Real Estate Agents,33594
Realty Results,"2421 Buckhorn Manor Dr
Valrico, FL 33594",(813) 662-3124,N/A,N/A,Real Estate Agents,33594
Sisters Real Estate Service,"4314 Brooke Dr
Valrico, FL 33594",(813) 731-9362,http://www.mysistersrealestate.com,N/A,Real Estate Agents,33594
Northstar Realty Professionals,"4424 Horseshoe Pick Ln
Valrico, FL 33594",(813) 324-7809,http://northstarrealtypros.com,N/A,Real Estate Agents,33594
mcdonaldlewisgroup,"575 Kirkcaldy Way
Valrico, FL 33594",(919) 410-6789,N/A,N/A,Real Estate Agents,33594
Christine Ans-Keller Williams Realtor,"2350 E State Road 60
Valrico, FL 33594",(813) 368-2699,N/A,N/A,Real Estate Agents,33594
Your Secret Agent,"2350 E State Road 60
Valrico, FL 33594",(917) 748-3919,N/A,N/A,Real Estate Agents,33594
Keller Williams Realty Inc,"2350 E State Road 60
Valrico, FL 33594",(813) 653-9500,http://kellerwilliamsbrandon.com,N/A,Real Estate Agents,33594
Harlotte Enterprises,"2510 E State Road 60
Valrico, FL 33594",(813) 685-0493,N/A,N/A,Real Estate Agents,33594
Robertson Real Estate,"1950 E State Road 60
Valrico, FL 33594",(813) 685-5522,N/A,N/A,Real Estate Agents,33594
"Janet Paula, Realtor","1725 E State Road 60
Valrico, FL 33594",(813) 546-5292,N/A,N/A,Real Estate Agents,33594
Century 21,"1725 E State Road 60
Valrico, FL 33594",(813) 643-0054,http://www.century21.com,N/A,Real Estate Agents,33594
"Luciano-Wong, Shaila, AGT","1725 E State Road 60
Valrico, FL 33594",(813) 563-1616,https://www.c21affiliated.com/shaila.wong,N/A,Real Estate Agents,33594
WRH Realty Service Inc,"108 Valrico Station Rd
Valrico, FL 33594",(813) 413-0308,https://www.valricostationapartments.com/photogallery.aspx,N/A,Real Estate Agents,33594
Comresinvestments,"100 S Mulrennan Rd
Valrico, FL 33594",(813) 333-2051,N/A,N/A,Real Estate Agents,33594
All About Realty Inc,"1506 Main St
Valrico, FL 33594",(813) 681-6600,N/A,N/A,Real Estate Agents,33594
Score Properties,"2411 Crosby Rd
Valrico, FL 33594",(813) 662-2366,http://www.scoreproperties.com,N/A,Real Estate Agents,33594
Valrico Town & Country,"1221 N Valrico Rd
Valrico, FL 33594",(813) 571-2406,N/A,N/A,Real Estate Agents,33594
Jewyll Realty,"1628 Emerald Hill Way
Valrico, FL 33594",(813) 661-3656,N/A,N/A,Real Estate Agents,33594
Schooner Properties Inc,"Valrico, FL 33594",(813) 215-8699,N/A,N/A,Real Estate Agents,33594
Steven Tizzani Signature Realty Associates,"Valrico, FL 33594",(813) 679-9542,N/A,N/A,Real Estate Agents,33594
Burnett & Curry Realty Inc,"2505 E State Road 60
Valrico, FL 33594",(813) 681-4676,N/A,N/A,Real Estate Agents,33594
Greg Buys Houses FL,"1125 Emerald Hill Way
Valrico, FL 33594",(813) 862-1147,http://www.gregbuyshousesfl.com,N/A,Real Estate Agents,33594
South Shore Group,"1019 Emerald Hill Way
Valrico, FL 33594",(813) 662-2355,http://jamesruffolo.com,N/A,Real Estate Agents,33594
Signature Realty Associates,"2234 Lithia Center Ln
Valrico, FL 33596",(813) 689-3115,http://www.signaturefl.com,N/A,Real Estate Agents,33594
James Agee Realty,"2514 Beachwood Ln
Valrico, FL 33596",(941) 315-6889,https://www.jamesageerealtor.com,N/A,Real Estate Agents,33594
Greer Dorothy E Broker,"2109 Lithia Pinecrest Rd
Valrico, FL 33596",(813) 654-2205,N/A,N/A,Real Estate Agents,33594
Prudential Real Estate,"3228 Lithia Pinecrest Rd Ste 102
Valrico, FL 33596",(813) 643-9977,N/A,N/A,Real Estate Agents,33594
Capstone Tropical Holdings Inc - Valrico,"3248 Lithia Pinecrest Rd
Valrico, FL 33596",(813) 643-9977,N/A,N/A,Real Estate Agents,33594
"Kraus, Nicole C, RLTR","2234 Lithia Center Ln
Valrico, FL 33596",(813) 476-4786,https://www.nicolekraus.com,N/A,Real Estate Agents,33594
"Housemovers, Inc","2234 Lithia Center Ln
Valrico, FL 33596",(813) 645-2009,https://www.signaturefl.com/contact-us,N/A,Real Estate Agents,33594
The Ezell Thompson Team,"2234 Lithia Center Ln
Valrico, FL 33596",(813) 240-3855,N/A,N/A,Real Estate Agents,33594
"Shea, George","2234 Lithia Center Ln
Valrico, FL 33596",(813) 541-2390,http://www.georgeshearealtor.com,N/A,Real Estate Agents,33594
"Gaulin, Anthony","2234 Lithia Center Ln
Valrico, FL 33596",(813) 244-0132,N/A,N/A,Real Estate Agents,33594
Baker Team,"2234 Lithia Center Ln
Valrico, FL 33596",(813) 643-1470,https://www.lovetamparealestate.com,N/A,Real Estate Agents,33594
"Quevedo, Tevin","2234 Lithia Center Ln
Valrico, FL 33596",(813) 520-8966,N/A,N/A,Real Estate Agents,33594
Weston Group,"2234 Lithia Center Ln
Valrico, FL 33596",(813) 846-4538,http://westongrouponline.com,N/A,Real Estate Agents,33594
Brenda Wade Team Real Estate,"2234 Lithia Center Ln
Valrico, FL 33596",(813) 655-5333,http://brendawade.com,N/A,Real Estate Agents,33594
Keller Williams Realty,"2211 Lithia Center Ln
Valrico, FL 33596",(813) 413-0265,http://www.kw.com,N/A,Real Estate Agents,33594
MBN Inc,"1305 Cadence Ct
Brandon, FL 33511",(813) 716-4742,N/A,N/A,Real Estate Agents,33594
Belleair Village Motel,Serving the33594 Area,(727) 416-7926,https://www.belleairlargohotel.com,N/A,Real Estate Agents,33594
House Buyer Network,Serving the33594 Area,(833) 274-7871,N/A,N/A,Real Estate Agents,33594
Brenda Wade Team,"1709 Bloomingdale Ave
Valrico, FL 33596",(813) 655-5333,http://brendawade.com,N/A,Real Estate Agents,33594
J and J Group,"1526 Bloomingdale Ave
Valrico, FL 33596",(813) 867-2024,N/A,N/A,Real Estate Agents,33594
"RE/MAX ALL PROS - Tampa Bay, the Beaches & Valrico","1526 Bloomingdale Ave
Valrico, FL 33596",(813) 399-6420,http://www.homesforsaleintampafla.com,N/A,Real Estate Agents,33594
Sell Your Home Team,"1526 Bloomingdale Ave
Valrico, FL 33596",(727) 420-3038,N/A,N/A,Real Estate Agents,33594
Acclaim Realty Co,"1512 Bloomingdale Ave
Valrico, FL 33596",(813) 684-5982,https://www.arctampabay.com/about-us,N/A,Real Estate Agents,33594
Remax,"1516 Bloomingdale Ave
Valrico, FL 33596",(813) 661-4663,N/A,N/A,Real Estate Agents,33594
Avalar Real Estate,"1540 Bloomingdale Ave
Valrico, FL 33596",(813) 685-0111,N/A,N/A,Real Estate Agents,33594
Carter Company Realtors,"3620 Erindale Dr
Valrico, FL 33596",(813) 661-4700,https://www.cartercompanyrealtors.com,N/A,Real Estate Agents,33594
Graham & Associates Realty Group,"3707 Kentfield Pl
Valrico, FL 33596",(813) 380-7742,http://grahamandassociatesrealty.com,N/A,Real Estate Agents,33594
