name,address,phone_number,website,email,category,zip_code
Pillar to Post,"224 Berry Tree Pl
Brandon, FL 33510",(813) 685-7573,http:/pillartopost.com,N/A,Home Inspectors,33584
A Plus Inspection Service,"Tampa, FL 33637",(813) 899-0003,N/A,N/A,Home Inspectors,33584
Applied Research Associates,"3710 Corporex Park Dr
Tampa, FL 33619",(813) 620-4561,N/A,N/A,Home Inspectors,33584
Collaborative Inspections,N/A,(833) 404-3222,N/A,N/A,Home Inspectors,33584
Preferred Home Inspection Services,N/A,(813) 328-2290,https://www.preferredhomeinspector.com,N/A,Home Inspectors,33584
Home Pro,Serving the33584 Area,(813) 528-3505,http://www.homeproswf.com,N/A,Home Inspectors,33584
AmeriSpec Inspection Services,Serving the33584 Area,(813) 442-1080,http://www.amerispechillsborough.com,N/A,Home Inspectors,33584
Neal Inspections,Serving the33584 Area,(813) 544-6325,https://nealinspections.com,N/A,Home Inspectors,33584
Valueguard Inspections,Serving the33584 Area,(813) 401-2563,https://valueguardfl.com,N/A,Home Inspectors,33584
Elemental Solutions,Serving the33584 Area,(813) 343-0321,https://gcfla.com,N/A,Home Inspectors,33584
A Buyer's Choice Home Inspections Tampa NW with Tony Castellanos,Serving the33584 Area,(813) 618-8309,https://abuyerschoice.com/inspector/tony-castellanos,N/A,Home Inspectors,33584
Bungalow Inspections,Serving the33584 Area,(813) 670-8408,http://bungalowhomeinspections.com,N/A,Home Inspectors,33584
Apex Sight Solutions,Serving the33584 Area,(813) 860-8374,https://apexsightsolutions.com,N/A,Home Inspectors,33584
AA Alert Home & Insurance Inspection,Serving the33584 Area,(813) 237-5090,N/A,N/A,Home Inspectors,33584
Thomas Inspection Services,Serving the33584 Area,(813) 204-9782,N/A,N/A,Home Inspectors,33584
Sloman Ron Home Inspections,Serving the33584 Area,(813) 839-8180,N/A,N/A,Home Inspectors,33584
WIN Home Inspection,Serving the33584 Area,(813) 774-1080,https://newtampa.wini.com/?utm_source=GMB_listing&utm_medium=organic,N/A,Home Inspectors,33584
Affordable Home Inspection,Serving the33584 Area,(813) 625-6241,N/A,N/A,Home Inspectors,33584
ABC Home & Property Inspection,Serving the33584 Area,(813) 648-3700,N/A,N/A,Home Inspectors,33584
Home Inspection Now Inc,Serving the33584 Area,(813) 789-6700,N/A,N/A,Home Inspectors,33584
HouseMaster Serving South Tampa,Serving the33584 Area,(813) 545-0185,https://housemaster.com/tampa?cid=LSTL_HMS000373,N/A,Home Inspectors,33584
Home Inspections Of Mid-Florida,1015 Sonya Ln,(813) 967-2987,N/A,N/A,Home Inspectors,33584
American Home & Insurance Inspector,1405 Star Jasmine Ln,(813) 930-6291,N/A,N/A,Home Inspectors,33584
United Home Inspections,867 W Bloomingdale Ave,(219) 595-9580,https://nwiinspector.com/chesterton,N/A,Home Inspectors,33584
Inspection Connection Inc,510 Herchel Dr,(813) 985-8852,N/A,N/A,Home Inspectors,33584
Tampa Inspection Company,701 Herlong Ct,(813) 373-3015,https://www.tampaic.com,N/A,Home Inspectors,33584
Home Inspections,5002 Sierra Pl,(813) 985-7521,N/A,N/A,Home Inspectors,33584
Brink's Home Inspection,3611 Cold Creek Dr,(734) 849-4100,https://www.brinkshomeinspections.com,N/A,Home Inspectors,33584
Assurate Building Inspection Service,10921 N 56th St,(813) 988-9102,N/A,N/A,Home Inspectors,33584
Fackler Home Inspection,8215 Stoner Rd,(813) 677-9287,https://facklerhomeinspection.com,N/A,Home Inspectors,33584
U S Home Inspections,12518 River Birch Dr,(813) 282-9164,http://www.usbuildingevaluations.com,N/A,Home Inspectors,33584
Optimal Property Inspections,9230 Sunnyoak Dr,(610) 428-5764,N/A,N/A,Home Inspectors,33584
