name,address,phone_number,website,email,category,zip_code
Martinez Lawn Care Services,"3112 Barkley Ln
Valrico, FL 33596",(813) 662-9792,N/A,N/A,Landscaping Companies,33594
Goodfellow\'s Horticultral Services,"2421 Buckhorn Manor Dr
Valrico, FL 33594",(813) 684-6768,https:/www.goodfellowinc.com,N/A,Landscaping Companies,33594
Lawn Patterns of Tampa Bay Inc,"3824 Cloverhill Ct
Brandon, FL 33511",(813) 662-2666,N/A,N/A,Landscaping Companies,33594
The Whole 9 Yards Lawn & Landscaping,"123 W Bloomingdale Ave
Brandon, FL 33511",(813) 684-1807,https:/thewhole9yardslawn.com/contact,N/A,Landscaping Companies,33594
Affordable Lawn-N-Landscaping,"3805 Treadway Dr
Valrico, FL 33594",(813) 571-7666,N/A,N/A,Landscaping Companies,33594
B & F Lawn & Landscaping,"2907 Stearns Rd
Valrico, FL 33596",(813) 713-7099,https:/www.bflawnlandscaping.com,N/A,Landscaping Companies,33594
Green Giant Landscaping Lawn Inc,"2636 Hideaway Ln
Valrico, FL 33596",(813) 681-7983,N/A,N/A,Landscaping Companies,33594
Lovett\'s Landscaping,Serving the33594 Area,(813) 345-8568,N/A,N/A,Landscaping Companies,33594
Crosscreek Landscaping,Serving the33594 Area,(813) 376-2422,http:/www.crosscreeklandscaping.com,N/A,Landscaping Companies,33594
"JOHNSON LANDSCAPING, INC.",Serving the33594 Area,(813) 361-3551,N/A,N/A,Landscaping Companies,33594
H & J LANDSCAPING,Serving the33594 Area,(813) 516-1327,N/A,N/A,Landscaping Companies,33594
Davidson Landscape & Irrigation Inc,"12110 Boyette Rd
Riverview, FL 33569",(813) 671-6865,N/A,N/A,Landscaping Companies,33594
Landscape Surgeons,Serving the33594 Area,(813) 563-0826,N/A,N/A,Landscaping Companies,33594
S & O Greenworks,"11380 Bloomingdale Ave
Riverview, FL 33578",(813) 685-5959,http://snogreenworks.com,N/A,Landscaping Companies,33594
L Henry Landscape Maintenance,"13306 Waterford Run Dr
Riverview, FL 33569",(813) 488-5022,N/A,N/A,Landscaping Companies,33594
Jose Diaz Landscaping,Serving the33594 Area,(813) 546-9868,N/A,N/A,Landscaping Companies,33594
Worry Free Lawn & Landscape Inc,Serving the33594 Area,(813) 215-1138,N/A,N/A,Landscaping Companies,33594
Evergreen Total Landscape,Serving the33594 Area,(813) 659-2778,https://www.evergreentampabay.com/blank-3,N/A,Landscaping Companies,33594
Mulch Master Installation,Serving the33594 Area,(813) 598-6298,N/A,N/A,Landscaping Companies,33594
Next Level Turf Management,Serving the33594 Area,(813) 650-8621,http://nextlevelturf.net,N/A,Landscaping Companies,33594
Complete Land Care,Serving the33594 Area,(813) 681-5851,N/A,N/A,Landscaping Companies,33594
Little Brother\'s Yards,Serving the33594 Area,(813) 868-4883,N/A,N/A,Landscaping Companies,33594
Wayne & Sons Landscaping & Junk Removal,"3203 Buckrun Dr
Brandon, FL 33511",(813) 452-1570,https://www.junkremovalbrandonfl.com,N/A,Landscaping Companies,33594
Innovative Landscape Solutions,"1303 Lakehurst Way
Brandon, FL 33511",(813) 743-6745,https://landscapejake11.wixsite.com/website,N/A,Landscaping Companies,33594
Outdoor Living by ProScape,"5329 Lithia Pinecrest Rd
Lithia, FL 33547",(813) 400-1401,N/A,N/A,Landscaping Companies,33594
Golden Sun,"5329 Lithia Pinecrest Rd
Lithia, FL 33547",(813) 751-4880,N/A,N/A,Landscaping Companies,33594
Fishhawk Landscape & Irrigation,"16440 Kingletridge Ave
Lithia, FL 33547",(813) 545-5636,N/A,N/A,Landscaping Companies,33594
