name,address,phone_number,website,email,category,zip_code
About Time Plumbing & Drain Cleaning Inc,1422 1/2 S Alexander St,(813) 752-2876,N/A,N/A,Plumbing Companies,33567
One Call Plumbing Hillsborough,406 Kilgore Rd,(813) 695-6975,N/A,N/A,Plumbing Companies,33567
Elite Plumbing & Gas,3508 Sam Astin Rd,(813) 527-5600,https://plumber.eliteplumbingandgasllc.com,N/A,Plumbing Companies,33567
Installation of Sinks,2001 Country Club Ct,(813) 359-9309,N/A,N/A,Plumbing Companies,33567
Back-Flow Prevention,206 W Alexander St,(813) 359-1592,N/A,N/A,Plumbing Companies,33567
Associated Plumbing Inc,2711 Airport Rd,(813) 659-0100,N/A,N/A,Plumbing Companies,33567
Guaranteed Air Services,4506 Edwards Rd,(813) 473-6291,N/A,N/A,Plumbing Companies,33567
Poppy's Plumbing,406 Kilgore Rd,(813) 695-6975,N/A,N/A,Plumbing Companies,33567
Water & Sewer Line Location,1903 W Reynolds St,(813) 365-7103,N/A,N/A,Plumbing Companies,33567
About Time Plumbing & Drain,408 W Dr Martin Luther King Jr Blvd,(813) 752-2876,N/A,N/A,Plumbing Companies,33567
Plant City Plumber Service,3412 W Baker St,(813) 659-5601,N/A,N/A,Plumbing Companies,33567
Pipe Pros Inc,702 E Reynolds St,(813) 752-8549,https://business.plantcity.org/list/member/pipe-pros-inc-3707,N/A,Plumbing Companies,33567
Anytime Pump and Well,804 Swilley Loop,(813) 309-5987,N/A,N/A,Plumbing Companies,33567
Amac's Plumbing Inc,8706 Mary Ivy Dr,(813) 737-2609,N/A,N/A,Plumbing Companies,33567
Scott's Plumbing Services,2815 Clubhouse Dr,(813) 759-9302,N/A,N/A,Plumbing Companies,33567
Springer Plumbing,4864 Goff Rd,(813) 759-2300,N/A,N/A,Plumbing Companies,33567
Professional Plumbing Solutions Inc,N/A,(813) 227-9411,N/A,N/A,Plumbing Companies,33567
Above & Beyond Plumbing & Rooter Inc,Serving the33567 Area,(813) 963-1580,N/A,N/A,Plumbing Companies,33567
Bahmann Frank Plumbing,N/A,(813) 782-8108,N/A,N/A,Plumbing Companies,33567
Riverview Plumbing,Serving the33567 Area,(656) 207-6042,https://voxservices.net/plumbing/riverview/fl/1107/riverviewplumbing,N/A,Plumbing Companies,33567
Dyser Plumbing Co,N/A,(813) 269-4790,N/A,N/A,Plumbing Companies,33567
Nick's Plumbing Service,N/A,(813) 933-6427,N/A,N/A,Plumbing Companies,33567
David E Albaugh Plumbing,Serving the33567 Area,(813) 298-6638,https://www.xstreamirrigationllc.com,N/A,Plumbing Companies,33567
Drainworks Plumbing & Gas Inc,N/A,(813) 707-3215,https://getdrainworks.com,N/A,Plumbing Companies,33567
Local Plumbing Lutz FL,N/A,(813) 315-3677,N/A,N/A,Plumbing Companies,33567
Bed Of Roses Landscaping,N/A,(813) 325-6263,N/A,N/A,Plumbing Companies,33567
Coggins Plumbing Inc,3801 E State Road 60,(813) 643-7173,http://www.cogginsplumbing.com,N/A,Plumbing Companies,33567
"Perez Plumbing, Inc.",N/A,(813) 907-1515,https://www.perezplumbing.com,N/A,Plumbing Companies,33567
1st Choice Plumbing Solutions LLC,N/A,(813) 643-7556,http://www.call1stchoiceplumbing.com,N/A,Plumbing Companies,33567
Temple Terrace Plumbing,N/A,(813) 239-7577,https://www.templeterraceplumbing.net,N/A,Plumbing Companies,33567
Tampa's Plumbing Solution,N/A,(813) 540-1010,http://www.tampasplumbing.com,N/A,Plumbing Companies,33567
The Pink Plumber of Tampa,N/A,(813) 586-2148,http://www.pinkplumberfl.com,N/A,Plumbing Companies,33567
Paul Wood Plumbing Inc.,Serving the33567 Area,(813) 641-1387,https://www.paulwoodplumbinginc.com/default.html,N/A,Plumbing Companies,33567
United Plumbing & Drain,Serving the33567 Area,(813) 546-9411,http://www.unitedplumbing-drain.com,N/A,Plumbing Companies,33567
ARS Rescue Rooter,Serving the33567 Area,(813) 995-7105,http://www.ars.com,N/A,Plumbing Companies,33567
Bay 2 Bay Plumbing & Drains,Serving the33567 Area,(813) 701-4224,https://bay2bayplumbing.com,N/A,Plumbing Companies,33567
Da Drain Fellas,Serving the33567 Area,(813) 540-7022,http://www.drainfellasllc.com,N/A,Plumbing Companies,33567
Guranteed Plumbing Services,10 S Maryland Ave,(813) 517-1051,N/A,N/A,Plumbing Companies,33567
Apr Inc,3919 Tanner Rd,(813) 915-7457,https://www.aprincfl.com,N/A,Plumbing Companies,33567
Affordable Plumbing & Repairs,3919 Tanner Rd,(813) 652-8241,N/A,N/A,Plumbing Companies,33567
Logue Dave Plumbing Inc,1113 N Palm Dr,(813) 754-8231,N/A,N/A,Plumbing Companies,33567
Sealander Contractor Service,N/A,(813) 788-7000,http://sealandercontractorservices.com,N/A,Plumbing Companies,33567
Tri-Care Services Inc,N/A,(727) 546-2059,http://www.tricareservicesinc.com,N/A,Plumbing Companies,33567
Advanced Plumbing Systems,N/A,(813) 961-6500,N/A,N/A,Plumbing Companies,33567
Wayne Conyers Plumbing Inc,N/A,(813) 986-3492,http://www.conyersplumbing.com,N/A,Plumbing Companies,33567
Believe Plumbing,N/A,(813) 516-4486,https://believeplumbing.com,N/A,Plumbing Companies,33567
Plumbing Repair Solutions,N/A,(949) 203-0225,N/A,N/A,Plumbing Companies,33567
Newport Beach Plumbing,N/A,(949) 203-0218,N/A,N/A,Plumbing Companies,33567
Forthright Plumbing,N/A,(813) 300-2225,http://www.forthrightplumbing.com,N/A,Plumbing Companies,33567
JDD Plumbing and Drain Service,N/A,(813) 212-5563,https://plumberapollobeach.com,N/A,Plumbing Companies,33567
J & E Home Repairs,N/A,(813) 530-1347,https://constructionvalricofl.com,N/A,Plumbing Companies,33567
Parker Plumbing Of Tampa,N/A,(813) 489-1097,N/A,N/A,Plumbing Companies,33567
Cornwall Plumbing,N/A,(813) 884-7494,N/A,N/A,Plumbing Companies,33567
Sun City Center Plumbing Services Inc,N/A,(813) 645-1989,N/A,N/A,Plumbing Companies,33567
Baum Plumbing,N/A,(813) 229-7355,N/A,N/A,Plumbing Companies,33567
Safe Choice Plumbing,N/A,(813) 299-7497,https://safechoiceplumbing.com,N/A,Plumbing Companies,33567
Anthony Gennaro Plumbing,N/A,(407) 960-3322,https://anthonygennaroplumbing.net/about,N/A,Plumbing Companies,33567
"ELK Plumbing Systems, LLC",N/A,(813) 871-2161,N/A,N/A,Plumbing Companies,33567
