name,address,phone_number,website,email,category,zip_code
Chandelier Cleaning,Serving the 33527 area.,(833) 637-2367,http:/www.chandeliercleaningtampa.com/,N/A,Cleaning Services,33527
Brandon Cleaning,"602 Lakeview Ave
Seffner, FL 33584",(813) 763-7976,https:/www.brandoncleaningllc.com,N/A,Cleaning Services,33527
Clean as a Whistle,"Po Box 33509
Brandon, FL 33508",(706) 340-4462,N/A,N/A,Cleaning Services,33527
Parfait Maid,Serving the33527 Area,(813) 374-5545,N/A,N/A,Cleaning Services,33527
Cleaning By Sharon,"Riverview, FL 33578",(813) 671-9024,N/A,N/A,Cleaning Services,33527
Cleanings By Doris,Serving the33527 Area,(813) 969-1798,N/A,N/A,Cleaning Services,33527
Kat\'s Kleaning Services,Serving the33527 Area,(813) 464-1764,http:/katskleaningservices.tripod.com,N/A,Cleaning Services,33527
Crystal Clean Cleaning Service,"lutz, FL 33549",(561) 305-4065,N/A,N/A,Cleaning Services,33527
A Thrifty Maid Professional Cleaning Service,"Tampa, FL 33625",(813) 963-3334,N/A,N/A,Cleaning Services,33527
US Cleaning Service Inc,Serving the33527 Area,(813) 671-0336,http:/www.unitedstatescleaningservice.com,N/A,Cleaning Services,33527
The Real Maids,"Apollo Beach, FL 33572",(813) 999-0059,http:/www.therealmaids.com,N/A,Cleaning Services,33527
"A-1 Maid Service, Inc.","Tampa, FL 33603",(727) 447-5848,http:/www.a1maidservice.com,N/A,Cleaning Services,33527
Xpress Cleaning Crew,"Dale Mabry
Tampa, FL 33618",(813) 816-2739,N/A,N/A,Cleaning Services,33527
Your Day Off Maid Services,"Tampa, FL 33612",(813) 507-4933,N/A,N/A,Cleaning Services,33527
Eves Cleaning Services - Commercial and Residential,Serving the33527 Area,(407) 501-2503,N/A,N/A,Cleaning Services,33527
Authentic Custom Services Inc.,"602 E Calhoun St
Plant City, FL 33563",(813) 473-2271,http:/www.authenticcustomservices.com,N/A,Cleaning Services,33527
Evans Family Cleaning Service,"Tampa, FL 33637",(813) 841-3630,N/A,N/A,Cleaning Services,33527
Maid in Bliss,"Zephyrhills, FL 33541",(813) 410-4949,http:/maids.com,N/A,Cleaning Services,33527
RDL King Of Cleaning and Other Thing LLC,"Tampa, FL 33614",(656) 245-0227,http:/cleaningsvcfl.com,N/A,Cleaning Services,33527
Ann\'s Personal Touch Cleaning Service,"Tampa, FL 33613",(813) 298-6095,https:/annspersonaltouchcleaning.gosite.com/pet-adoption-contact,N/A,Cleaning Services,33527
Office Pride Commercial Cleaning Services,"Tampa, FL 33603",(813) 448-6373,N/A,N/A,Cleaning Services,33527
Sunrise Cleaning Service,Serving the33527 Area,(813) 601-9700,https:/sunrisecleaningservicetampa.com,N/A,Cleaning Services,33527
Suds N Mops Cleaning Services,Serving the33527 Area,(813) 851-3705,https:/sudsnmops.com,N/A,Cleaning Services,33527
KLP Home Improvement,Serving the33527 Area,(727) 723-5190,http:/www.klphomeimprovement.com,N/A,Cleaning Services,33527
Jazzy\'s Cleaning Services LLC,"3506 Trapnell Grove Loop
Plant City, FL 33567",(813) 409-9075,N/A,N/A,Cleaning Services,33527
Pura Home Cleaning,"1032 E Brandon Blvd
Brandon, FL 33511",(813) 945-7872,https:/www.purahomecleaning.com,N/A,Cleaning Services,33527
A Bio Decon,"11608 Galway Rd Unit 30
Seffner, FL 33584",(813) 728-6688,N/A,N/A,Cleaning Services,33527
Imagine Maid Service,"1808 Stillmeadow Dr
Valrico, FL 33596",(813) 451-8416,N/A,N/A,Cleaning Services,33527
Henrietta\'s Way,"tampa, FL 33615",(813) 802-9696,N/A,N/A,Cleaning Services,33527
Full Force Home Cleaning,"Zephyrhills, FL 33542",(813) 297-6116,N/A,N/A,Cleaning Services,33527
OG Sparks Cleaning Services,"Tampa, FL 33634",(813) 409-0612,N/A,N/A,Cleaning Services,33527
Blossom Cleaning Services,"Land O Lakes, FL 34639",(813) 900-8240,N/A,N/A,Cleaning Services,33527
Isa Cleaning Services,"Tampa, FL 33615",(786) 483-0225,N/A,N/A,Cleaning Services,33527
Wall to Wall,"Thonotosassa, FL 33592",(813) 692-5377,N/A,N/A,Cleaning Services,33527
Sparkling Clean Homes,"Tampa, FL 33625",(813) 361-3887,N/A,N/A,Cleaning Services,33527
Mercy\'s Cleaning,"Tampa, FL 33603",(813) 706-3626,N/A,N/A,Cleaning Services,33527
K & P Cleaning Services LLC,"Brandon, FL 33511",(813) 692-9956,N/A,N/A,Cleaning Services,33527
Magela Cleaning Services LLC,"Tampa, FL 33637",(813) 330-4751,N/A,N/A,Cleaning Services,33527
Maid And Butler,"Brandon, FL 33511",(813) 571-1191,N/A,N/A,Cleaning Services,33527
Diva Girls Cleaning,"Brandon, FL 33511",(877) 747-9026,N/A,N/A,Cleaning Services,33527
Coast to Coast Maids of Tampa,"Tampa, FL 33548",(813) 388-3889,N/A,N/A,Cleaning Services,33527
Spotless & Shine Cleaning Service,"Seffner, FL 33584",(813) 382-7520,N/A,N/A,Cleaning Services,33527
Bikini Housekeeping,Serving the33527 Area,(813) 322-4853,N/A,N/A,Cleaning Services,33527
Squeaky Clean Home & Office Cleaning,Serving the33527 Area,(813) 384-0554,N/A,N/A,Cleaning Services,33527
ecomaids of Greater Tampa-Riverview-Valrico,Serving the33527 Area,(813) 547-3716,https://www.ecomaids.com/greater-tampa-fl,N/A,Cleaning Services,33527
S & E Cleaning Services,Serving the33527 Area,(813) 551-7398,N/A,N/A,Cleaning Services,33527
Ontime-Anytime Services Inc,Serving the33527 Area,(813) 403-7838,N/A,N/A,Cleaning Services,33527
Clarkes Steam Cleaning,Serving the33527 Area,(321) 746-2933,https:/clarkessteamcleaning.com,N/A,Cleaning Services,33527
Isabel\'s Cleaning Services,Serving the33527 Area,(813) 235-0663,N/A,N/A,Cleaning Services,33527
Supreme House Cleaning,Serving the33527 Area,(813) 203-6910,N/A,N/A,Cleaning Services,33527
Brittanys Cleaning,Serving the33527 Area,(727) 729-2735,N/A,N/A,Cleaning Services,33527
Lightning Cleaning Tampa,Serving the33527 Area,(813) 922-2110,https:/lightningcleaningtampa.com,N/A,Cleaning Services,33527
Renewed Cleaning,Serving the33527 Area,(813) 498-2415,N/A,N/A,Cleaning Services,33527
On the Spot Cleaning,"Valrico, FL 33594",(813) 335-5605,N/A,N/A,Cleaning Services,33527
House Cleaning - My Home Set,"Tampa, FL 33625",(813) 433-6136,N/A,N/A,Cleaning Services,33527
Natalie\'s Cleaning Service,"Tampa, FL 33626",(813) 447-2568,N/A,N/A,Cleaning Services,33527
Bright & Light,"Parson\'s reserve Ct
Seffner, FL 33584",(813) 405-9678,N/A,N/A,Cleaning Services,33527
Leo\'s Cleaning Service,Serving the33527 Area,(813) 965-7762,N/A,N/A,Cleaning Services,33527
Quality Cleaning Sevice,Serving the33527 Area,(813) 458-3254,N/A,N/A,Cleaning Services,33527
Cleaning\'s by Ruth,Serving the33527 Area,(813) 326-7624,N/A,N/A,Cleaning Services,33527
