name,address,phone_number,website,email,category,zip_code
Gideons & Greco Plumbing Co Inc,121 Central Dr,(813) 681-8567,http://www.gideons.com,N/A,Plumbing Companies,33510
Parker Plumbing,PO Box 6155,(813) 321-7297,N/A,N/A,Plumbing Companies,33510
Roto-Rooter Plumbing & Water Cleanup,110 Lithia Pinecrest Rd,(813) 939-8667,https://www.rotorooter.com/brandonfl/?utm_source=iyp&utm_medium=paid&utm_campaign=iyp,N/A,Plumbing Companies,33510
Leto Plumbing Inc,519 Wilbur St,(813) 634-4100,https://letoplumbinginc.com,N/A,Plumbing Companies,33510
Plumbing Service In Brandon FL,1208 N Parsons Ave,(813) 315-3677,https://highlowplumbing.com,N/A,Plumbing Companies,33510
UFI Plumbing,129 Central Dr,(813) 654-2962,N/A,N/A,Plumbing Companies,33510
Complete Plumbing & Drain,148 Central Dr,(813) 819-9240,https://www.completeplumbinganddrains.com,N/A,Plumbing Companies,33510
Mister Plumbing,108 N Kings Ave,(813) 513-9263,N/A,N/A,Plumbing Companies,33510
Always Affordable Plumbing,1010 W Brandon Blvd,(813) 513-9412,N/A,N/A,Plumbing Companies,33510
Toilet Repair & Installation,131 N Moon Ave,(813) 278-1144,N/A,N/A,Plumbing Companies,33510
Water Heaters,717 W Robertson St,(813) 540-4264,N/A,N/A,Plumbing Companies,33510
Around-the-Clock Plumbing,652 Oakfield Dr,(813) 603-3441,N/A,N/A,Plumbing Companies,33510
Scott's Plumbing Heating & Service,108 N Pinewood Ave,(813) 651-4293,N/A,N/A,Plumbing Companies,33510
Springer Plumbing,108 N Pinewood Ave,(813) 685-0730,N/A,N/A,Plumbing Companies,33510
Wayne Conyers Plumbing,108 N Pinewood Ave,(813) 651-3397,N/A,N/A,Plumbing Companies,33510
Subterrain Technologies Inc,108 N Pinewood Ave,(813) 653-3446,N/A,N/A,Plumbing Companies,33510
Plumbers,108 N Pinewood Ave,(813) 657-5657,N/A,N/A,Plumbing Companies,33510
Brandon Appliances Plumbing,115 Margaret St,(813) 235-0463,N/A,N/A,Plumbing Companies,33510
Alpha Integrations,330 Pauls Dr,(813) 330-7699,http://integralenergyus.com,N/A,Plumbing Companies,33510
Curtis Plumbing,330 Pauls Dr,(813) 324-7436,N/A,N/A,Plumbing Companies,33510
Complete Repipe,704 W Dr Martin Luther King Jr Blvd,(813) 603-3442,N/A,N/A,Plumbing Companies,33510
A Stone Plumbing Company,607 Pauls Dr,(813) 681-1900,N/A,N/A,Plumbing Companies,33510
Boyte Plumbing,607 Pauls Dr,(813) 681-8923,N/A,N/A,Plumbing Companies,33510
Pro-Team Plumbing,607 Pauls Dr,(813) 643-3489,N/A,N/A,Plumbing Companies,33510
3 Sons Plumbing,2514 Linden Tree St,(813) 957-4570,https://3sonsplumbing.net/contact-us,N/A,Plumbing Companies,33510
The Friendly Plumber,1616 Allison Woods Ln,(813) 622-8533,https://thefriendlyplumberllc.com,N/A,Plumbing Companies,33510
Available Not,613 Kensington Lake Cir,(813) 681-2438,http://yellowpages.com/brandon-fl/mip/roto-rooter-plumbing-water-cleanup-566706755,N/A,Plumbing Companies,33510
Tampa Commercial Plumbing Services,10184 Fisher Ave,(813) 352-3134,https://jsplumbinginc.com,N/A,Plumbing Companies,33510
L R Simmons Plumbing,213 N Falkenburg Rd,(813) 685-8778,N/A,N/A,Plumbing Companies,33510
