name,address,phone_number,website,email,category,zip_code
Watershed Plumbing Inc,4200 Lankford Dr,(813) 621-8800,N/A,N/A,Plumbing Companies,33617
Prestige Plumbing & Backflow Services LLC.,7364 E Bank Dr,(813) 983-0346,http://www.theprestigeplumber.com,N/A,Plumbing Companies,33617
Hawkins Plumbing CO,1511 1/2 E Fowler Ave,(813) 972-8990,N/A,N/A,Plumbing Companies,33617
Scott's Plumbing Heating & Service,5808 N 56th St,(813) 651-4293,https://www.onehourheatandair.com/locations/florida,N/A,Plumbing Companies,33617
Ray Duncan Plumbing Inc,5401 E Sligh Ave,(727) 275-1649,https://plumbingtoday.biz/ray-duncan/?utm_source=Rocketlisting&utm_medium=referral,N/A,Plumbing Companies,33617
Benjamin Franklin PlumbingÂ®,5808 N 56th St Ste A,(813) 278-7159,https://tampabenjaminfranklin.com,N/A,Plumbing Companies,33617
ARS Rescue Rooter,140 Argos Complex,(727) 547-3810,N/A,N/A,Plumbing Companies,33617
Associated Plumbing Inc,7402 N 56th St Ste 525,(813) 991-7960,N/A,N/A,Plumbing Companies,33617
Progressive Plumbing Inc,101 N Burlingame Ave,(813) 926-6529,N/A,N/A,Plumbing Companies,33617
Foundation,4815 E Busch Blvd,(813) 392-1241,N/A,N/A,Plumbing Companies,33617
Water Pipe Replacement,11434 N 53rd St,(813) 384-7878,N/A,N/A,Plumbing Companies,33617
Residential Plumbing,4001 E Busch Blvd,(813) 906-4310,N/A,N/A,Plumbing Companies,33617
Your Plumbing Experts,4202 E Fowler Ave,(813) 518-7024,N/A,N/A,Plumbing Companies,33617
Plumbing Installation,4117 E Fowler Ave,(813) 291-2973,N/A,N/A,Plumbing Companies,33617
Slab Leak Detection & Repair,12479 Telecom Dr,(813) 327-7214,N/A,N/A,Plumbing Companies,33617
Fast,2718 E Fowler Ave,(813) 854-5659,N/A,N/A,Plumbing Companies,33617
Sewer Studs,7610 Industrial Ln,(813) 300-2225,https://sewerstuds.com,N/A,Plumbing Companies,33617
Johnny on the Spot Plumbing,9415 N 20th St,(813) 931-4417,N/A,N/A,Plumbing Companies,33617
24,2244 University Square Mall,(813) 852-5168,N/A,N/A,Plumbing Companies,33617
Nash Inc,3100 E Fletcher Ave,(813) 978-1890,http://yellowpages.com/tampa-fl/mip/clean-plumbers-by-phillip-maurici-plumbing-17108572,N/A,Plumbing Companies,33617
Sewer,2213 University Square Mall,(813) 820-1352,N/A,N/A,Plumbing Companies,33617
J J K Plumbing Systems Inc,13402 Bruce B Downs Blvd,(813) 977-4497,N/A,N/A,Plumbing Companies,33617
Approved,2840 E Fletcher Ave,(813) 852-5089,N/A,N/A,Plumbing Companies,33617
Heat,2836 E Fletcher Ave,(813) 820-1449,N/A,N/A,Plumbing Companies,33617
Florida Industrial Plumbing,410 Glen Ridge Ave,(813) 987-2809,http://www.contractors.com/h/contractorinfo/details.html?contractor_id=4278459&affid=101,N/A,Plumbing Companies,33617
Taylor Made Plumbing,10213 N Ninevah Rd,(813) 394-4675,N/A,N/A,Plumbing Companies,33617
Grable Plumbing,3723 E. Hillsborough Ave,(813) 239-3636,https://www.grableplumbing.com,N/A,Plumbing Companies,33617
