name,address,phone_number,website,email,category,zip_code
Compare Roofing Experts,Serving the 33527 area.,(888) 906-6670,https://www.yellowpages.com/</nationwide/mip/compare-roofing-experts-577854062?lid=1002194365265>,N/A,Roofing Contractors,33527
Bill Shields Roofing,Serving the 33527 area.,(813) 915-6714,http://www.billshieldsroofing.com/,N/A,Roofing Contractors,33527
Alan\'s Roofing Inc,"14498 Ponce De Leon Blvd, Brooksville, FL 34601",(407) 961-7467,https://www.alansroofinginc.com/,N/A,Roofing Contractors,33527
A.M. Roofing and Waterproofing Inc.,"31609 FairHill Dr, Wesley Chapel, FL 33543",(656) 201-9140,https://www.amroofingandwaterproofing.com/,N/A,Roofing Contractors,33527
"All Seasons Roofing, Inc.","2722 Saint Anthony Dr, Valrico, FL 33594",(813) 467-9752,N/A,N/A,Roofing Contractors,33527
Quality Roofing and Construction,Serving the 33527 area.,(813) 932-8005,https://www.mathewsqualityrooftampa.com/,N/A,Roofing Contractors,33527
Larry Miller Inc,"2913 W Waters Ave
Tampa, FL 33614",(813) 931-4024,https://www.roofer-tampa.com,N/A,Roofing Contractors,33527
Done Rite Roofing,"405 Orange St
Palm Harbor, FL 34683",(727) 771-8747,http://www.doneriteroofinginc.com,N/A,Roofing Contractors,33527
"All Area Roofing & Waterproofing, Inc.","2506 N 58th St
Tampa, FL 33619",(813) 621-6347,N/A,N/A,Roofing Contractors,33527
Dynasty Building Solutions,"3914 Hwy 301 N Ste 200
Tampa, FL 33619",(813) 440-3740,http://www.dynastybuildingsolutions.com,N/A,Roofing Contractors,33527
Roofing Company Dover FL,"238 Marion Drive
Dover, FL 33527",(813) 397-5488,N/A,N/A,Roofing Contractors,33527
Dover Roofing,"624 Main St, Dover,
Dover, FL 33527",(813) 397-5488,N/A,N/A,Roofing Contractors,33527
Southeastern Roofing & Construction,"2922 Shady Acres Rd
Dover, FL 33527",(844) 473-7663,https://www.seroof.com/tampa,N/A,Roofing Contractors,33527
Matera Roofing,"1104 Salem Watch Pl
Dover, FL 33527",(813) 971-2527,https://materaroofing.com,N/A,Roofing Contractors,33527
SRQ Building Services,"2110 Whitlock Pl
Dover, FL 33527",(813) 502-7164,N/A,N/A,Roofing Contractors,33527
Chappelle Roofing & Replacement Services Hillsborough County,"14615 Lake Ave
Dover, FL 33527",(813) 576-2049,N/A,N/A,Roofing Contractors,33527
Garrett Roofing,"13133 Jess Walden Rd
Dover, FL 33527",(813) 756-5058,http://roofn.com,N/A,Roofing Contractors,33527
Tosca Roofing,"12856 E Wheeler Rd
Dover, FL 33527",(813) 681-1269,N/A,N/A,Roofing Contractors,33527
Five Star General Contracting & Roofing,"Dover, FL 33527",(813) 727-8764,https://www.5star-gc.com,N/A,Roofing Contractors,33527
BUDDYS ROOFING,"12933 Thonotosassa Rd
Dover, FL 33527",(813) 982-0218,http://www.buddysroofing.com,N/A,Roofing Contractors,33527
Jewell Empire Corp,"13309 E Us Highway 92
Dover, FL 33527",(813) 659-1164,N/A,N/A,Roofing Contractors,33527
Jewellco Roofing,"13309 E Us Highway 92
Dover, FL 33527",(813) 659-1164,N/A,N/A,Roofing Contractors,33527
Plant City Roofing,"84 Martin Luther King Jr
Plant City, FL 33563",(813) 397-5488,N/A,N/A,Roofing Contractors,33527
Solution Source Roofing,"3108 Central Drive, Suite 105
Plant City, FL 33566",(813) 659-5779,http://solutionsourceroofing.com,N/A,Roofing Contractors,33527
Roofing Company Seffner FL,"664 W Dr Martin Luther Ki
Seffner, FL 33584",(813) 397-5488,N/A,N/A,Roofing Contractors,33527
Sikes Ken,"15629 Wj Valley Rd
Plant City, FL 33566",(813) 752-5060,N/A,N/A,Roofing Contractors,33527
Allen Belt Roofing,"3019 Gem Luster Ct
Valrico, FL 33594",(813) 654-0416,N/A,N/A,Roofing Contractors,33527
Valrico Roofingto Roofing,"2022 Rudder Dr
Valrico, FL 33594",(813) 502-0759,N/A,N/A,Roofing Contractors,33527
A Able Roofing,"1117 King Arthur Ct
Valrico, FL 33594",(813) 684-7135,https://www.abilityroofings.com,N/A,Roofing Contractors,33527
C K Construction & Roofing Inc,"2325 Towering Oaks Cir
Seffner, FL 33584",(813) 684-9155,N/A,N/A,Roofing Contractors,33527
Yowell\'s Roofing,"Lutz, FL 33548",(813) 918-1277,https://www.yowellsroofing.com,N/A,Roofing Contractors,33527
Handyman Roofing Co,Serving the33527 Area,(813) 878-0962,http://www.handymanroofing.com,N/A,Roofing Contractors,33527
Becca Roofing Inc,"1614 S Miller Rd
Valrico, FL 33594",(888) 313-0793,N/A,N/A,Roofing Contractors,33527
Roofing Solutions of Tampa,"712 Camellia Ct
Seffner, FL 33584",(813) 627-9272,https://roofingsolutionsoftampa.com/contact.html,N/A,Roofing Contractors,33527
"Tosca Roofing, Inc.","Seffner, FL 33584",(813) 681-1269,http://www.toscaroofing.net,N/A,Roofing Contractors,33527
"Solar Roof Solutions, Inc.",Serving the33527 Area,(813) 999-4918,http://solarroofsolutions.net,N/A,Roofing Contractors,33527
A-Deal Roofing Inc,"Plant City, FL 33565",(813) 655-5560,http://www.adealroofing.com,N/A,Roofing Contractors,33527
Tampa Roofing Co,Serving the33527 Area,(813) 238-6436,https://tamparoofing.com/about-us,N/A,Roofing Contractors,33527
"Florida Shelter Roofing, LLC","1006 Tranquiview Ln
Valrico, FL 33594",(813) 316-6260,https://www.floridashelterroofing.com,N/A,Roofing Contractors,33527
"Roofing Service in Valrico, FL","14 Bubby Drive
Valrico, FL 33594",(813) 397-5488,N/A,N/A,Roofing Contractors,33527
Green Roofing Technologies Inc,"901 S Woodrow Wilson St
Plant City, FL 33563",(727) 799-7886,http://www.greenroofingtechnologies.com,N/A,Roofing Contractors,33527
Shingle Masters Roofing,"2502 Green Cove Dr
Brandon, FL 33510",(866) 412-8069,N/A,N/A,Roofing Contractors,33527
Backbone Roofing Inc,"2505 Thonotosassa Rd
Plant City, FL 33563",(813) 580-8611,http://backboneroofing.com,N/A,Roofing Contractors,33527
"Roofing S Service in Seffner, FL","7271 N Us Highway 21
Seffner, FL 33584",(813) 397-5488,N/A,N/A,Roofing Contractors,33527
Ra Gonzalez Construction Inc,"2108 Strawberry Dr
Plant City, FL 33563",(813) 468-1153,N/A,N/A,Roofing Contractors,33527
Roofing Company Brandon FL,"24297 N Parsons Ave
Brandon, FL 33510",(813) 397-5488,N/A,N/A,Roofing Contractors,33527
Artisan Roofing Services LLC,"911 N Parsons Ave
Brandon, FL 33510",(813) 361-7444,N/A,N/A,Roofing Contractors,33527
Platinum Roofing & Restoration,"613 E Morgan St
Brandon, FL 33510",(813) 305-0932,https://www.flroofer.com,N/A,Roofing Contractors,33527
Mighty Dog Roofing of Southeast Tampa,"339 E Robertson St
Brandon, FL 33511",(813) 579-6973,https://www.mightydogroofing.com/southeast-tampa-fl,N/A,Roofing Contractors,33527
Roof X,"433 Lithia Pinecrest Rd
Brandon, FL 33511",(813) 590-1124,https://www.roofxincfl.com,N/A,Roofing Contractors,33527
JD Contractors Inc.,"207 E Robertson St Ste E
Brandon, FL 33511",(813) 422-2019,https://jdc-roofing.com,N/A,Roofing Contractors,33527
R Bennett Construction & Roofing,"2701 Herndon St
Valrico, FL 33596",(813) 932-4003,https://www.rbennettconstructionandroofing.com,N/A,Roofing Contractors,33527
Roofing Company Durant FL,"5434 S Tamiami Trail
Durant, FL 33530",(813) 397-5488,N/A,N/A,Roofing Contractors,33527
"Roofing Service in Durant, FL","1 Farm 28
Durant, FL 33530",(813) 397-5488,N/A,N/A,Roofing Contractors,33527
Cardinal Roofing,"1312 Orangewalk Dr
Brandon, FL 33511",(813) 689-7663,http://www.cardinalroofingandsolar.com,N/A,Roofing Contractors,33527
"Roofing Service in Lithia, FL","14 4th Avenue
Lithia, FL 33547",(813) 397-5488,N/A,N/A,Roofing Contractors,33527
